network,country,state,region,location,lat,lon,spread,start,end,cause
GR__ASOS,GR,,Attica,Kineta-Geraneia,38.021,23.1352,56133.0,2018-07-23 12:03:00,2018-08-02 19:30:00,Human negligence
GR__ASOS,GR,,Attica,Daou Penteli-Neos Voutzas-Mati,38.0436,23.9783,12759.0,2018-07-23 16:41:00,2018-09-10 09:04:00,Human negligence
CY__ASOS,CY,,ΛΕΥΚΩΣΙΑ,ΑΓΙΑ ΜΑΡΙΝΑ ΞΥΛΙΑΤΟΥ,35.0421726788349,33.0497122875862,0.2425,2012-05-01 15:30:00,,Γεωργικές δραστηριότητες
CY__ASOS,CY,,ΛΑΡΝΑΚΑ,ΚΟΦΙΝΟΥ ,34.854889513744325,33.41612362675488,7.5,2012-05-13 13:25:00,,Δραστηριότητες σε κατοικίες
CY__ASOS,CY,,ΛΕΥΚΩΣΙΑ,ΠΛΑΤΑΝΙΣΤΑΣΑ ,35.02216772542044,33.0756464253805,0.175,2012-05-24 15:25:00,,Στρατιωτικές δραστηριότητες
CY__ASOS,CY,,ΑΜΜΟΧΩΣΤΟΣ,ΑΓΙΑ ΝΑΠΑ ,34.989203885964585,34.01246609221105,1.0,2012-05-25 13:25:00,,Ταξιδιώτες / Εκδρομείς
CY__ASOS,CY,,ΛΕΥΚΩΣΙΑ,ΚΑΤΩ ΚΟΥΤΡΑΦΑΣ,35.07260286642031,32.96675477291161,0.11,2012-05-30 11:05:00,,Στρατιωτικές δραστηριότητες
CY__ASOS,CY,,ΛΑΡΝΑΚΑ,ΑΒΔΕΛΛΕΡΟ ,35.00038908978598,33.54322279140808,4.0,2012-06-10 10:15:00,,Άλλη
CY__ASOS,CY,,ΛΕΥΚΩΣΙΑ,ΜΟΥΤΟΥΛΛΑΣ ,34.98291490580239,32.815143248206695,0.026,2012-06-20 17:15:00,,Φυσική (κεραυνός)
CY__ASOS,CY,,ΛΕΥΚΩΣΙΑ,ΜΟΥΤΟΥΛΛΑΣ ,34.97448616170374,32.849682306041984,0.05,2012-06-20 15:00:00,,Φυσική (κεραυνός)
CY__ASOS,CY,,ΠΑΦΟΣ,ΠΕΓΕΙΑ ,34.906765800037974,32.345930454766886,0.0002,2012-06-20 15:00:00,,Φυσική (κεραυνός)
CY__ASOS,CY,,ΛΕΜΕΣΟΣ,ΜΟΝΙΑΤΗΣ,34.86816121823971,32.91627805914473,0.02,2012-06-22 01:30:00,,Άγνωστη
CY__ASOS,CY,,ΛΕΜΕΣΟΣ,ΑΨΙΟΥ ,34.81080241543325,33.04446694425318,0.0514,2012-06-24 17:40:00,,Φυσική (κεραυνός)
CY__ASOS,CY,,ΛΕΥΚΩΣΙΑ,ΑΓΙΟΣ ΕΠΙΦΑΝΙΟΣ ΟΡΕΙΝΗΣ,34.991885134461675,33.131042182952854,1.24,2012-06-27 10:30:00,,Σκόπιμη
CY__ASOS,CY,,ΑΜΜΟΧΩΣΤΟΣ,ΛΙΟΠΕΤΡΙ ,34.97051356190404,33.89879384049762,0.1,2012-07-02 12:30:00,,Δασικές εργασίες
CY__ASOS,CY,,ΠΑΦΟΣ,ΝΕΟ ΧΩΡΙΟ,35.04176249250041,32.35586423253076,197.6,2012-07-03 09:10:00,,Σκόπιμη
CY__ASOS,CY,,ΠΑΦΟΣ,ΙΝΕΙΑ ,34.957716084609096,32.318472449780444,26.32,2012-07-03 15:00:00,,Σκόπιμη
CY__ASOS,CY,,ΛΑΡΝΑΚΑ,ΚΟΦΙΝΟΥ ,34.85119867613877,33.398055953090186,0.2,2012-07-03 13:24:00,,Ταξιδιώτες / Εκδρομείς
CY__ASOS,CY,,ΛΕΥΚΩΣΙΑ,ΚΑΠΕΔΕΣ ,34.98449146584794,33.27987599127471,0.3,2012-07-12 11:25:00,,Γεωργικές δραστηριότητες
CY__ASOS,CY,,ΠΑΦΟΣ,ΚΟΥΚΛΙΑ ,34.683156571147265,32.61981279112128,0.0042,2012-07-16 11:30:00,,Άλλη
CY__ASOS,CY,,ΛΕΥΚΩΣΙΑ,ΣΙΑ ,34.94655207784835,33.40286400216866,0.3,2012-07-17 08:40:00,,Δραστηριότητες σε κατοικίες
CY__ASOS,CY,,ΛΑΡΝΑΚΑ,ΛΑΓΕΙΑ ,34.85203675418355,33.23556128197892,2.2,2012-07-22 11:20:00,,Ταξιδιώτες / Εκδρομείς
CY__ASOS,CY,,ΠΑΦΟΣ,ΑΣΠΡΟΓΙΑ ,34.92159760027557,32.601648208400384,0.04,2012-08-01 20:55:00,,Σκόπιμη
CY__ASOS,CY,,ΠΑΦΟΣ,ΑΡΓΑΚΑ ,35.0656415422501,32.49301994752181,0.7948,2012-08-07 12:15:00,,Σκόπιμη
CY__ASOS,CY,,ΠΑΦΟΣ,ΑΡΓΑΚΑ ,35.06751156109072,32.485276246277664,0.1283,2012-08-07 12:15:00,,Σκόπιμη
CY__ASOS,CY,,ΠΑΦΟΣ,ΑΣΠΡΟΓΙΑ ,34.91966731866133,32.6126383063489,0.17,2012-08-08 04:20:00,,Σκόπιμη
CY__ASOS,CY,,ΛΕΥΚΩΣΙΑ,ΑΓΙΟΣ ΕΠΙΦΑΝΙΟΣ ΟΡΕΙΝΗΣ,34.99605031625789,33.09288151027631,130.0,2012-08-09 15:35:00,,Δραστηριότητες σε κατοικίες
CY__ASOS,CY,,ΛΕΜΕΣΟΣ,ΠΕΛΕΝΔΡΙ,34.899275453986725,32.9369769098147,0.003,2012-08-21 13:00:00,,Βραχυκύκλωμα καλωδίων
CY__ASOS,CY,,ΛΕΜΕΣΟΣ,ΛΕΜΕΣΟΣ ,34.70934168226148,33.012012254196954,0.2349,2012-08-21 15:30:00,,Ταξιδιώτες / Εκδρομείς
CY__ASOS,CY,,ΛΕΜΕΣΟΣ,ΛΕΜΕΣΟΣ ,34.70903475891982,33.01487329978401,0.0957,2012-08-25 09:30:00,,Στρατιωτικές δραστηριότητες
CY__ASOS,CY,,ΠΑΦΟΣ,ΑΡΓΑΚΑ ,35.0625195589655,32.49038525852015,0.7392,2012-08-26 15:20:00,,Σκόπιμη
CY__ASOS,CY,,ΛΕΜΕΣΟΣ,ΠΑΝΩ ΠΛΑΤΡΕΣ,34.89066317599381,32.86059324018029,0.75,2012-08-26 14:00:00,,Σκόπιμη
CY__ASOS,CY,,ΛΕΥΚΩΣΙΑ,ΑΓΙΟΣ ΕΠΙΦΑΝΙΟΣ ΟΡΕΙΝΗΣ,34.994336233256405,33.13255828544991,0.0459,2012-08-29 14:12:00,,Δραστηριότητες σε κατοικίες
CY__ASOS,CY,,ΠΑΦΟΣ,ΛΥΣΟΣ,34.99946644960754,32.51350440637019,0.2009,2012-09-03 12:20:00,,Δραστηριότητες σε κατοικίες
CY__ASOS,CY,,ΛΕΥΚΩΣΙΑ,ΜΥΛΙΚΟΥΡΙ ,34.92000352943133,32.75147928298954,0.0009,2012-09-10 16:45:00,,Φυσική (κεραυνός)
CY__ASOS,CY,,ΛΕΥΚΩΣΙΑ,ΕΥΡΥΧΟΥ ,35.051893394508724,32.894050075949835,0.4,2012-09-11 07:05:00,,Βραχυκύκλωμα καλωδίων
CY__ASOS,CY,,ΛΕΥΚΩΣΙΑ,ΛΑΖΑΝΙΑΣ,34.913768562080264,33.21251847030949,0.1,2012-09-22 18:50:00,,Ταξιδιώτες / Εκδρομείς
CY__ASOS,CY,,ΛΕΥΚΩΣΙΑ,ΑΓΙΟΣ ΕΠΙΦΑΝΙΟΣ ΟΡΕΙΝΗΣ,34.98745442546384,33.12547991111072,0.037,2012-09-24 08:00:00,,Βραχυκύκλωμα καλωδίων
CY__ASOS,CY,,ΠΑΦΟΣ,ΒΡΕΤΣΙΑ ,34.886955171653625,32.65254997281884,40.0,2012-09-27 13:25:00,,Σκόπιμη
CY__ASOS,CY,,ΛΑΡΝΑΚΑ,ΚΑΛΑΒΑΣΟΣ ,34.79647207442569,33.26515914166525,1.1,2012-10-03 11:20:00,,Στρατιωτικές δραστηριότητες
CY__ASOS,CY,,ΛΕΥΚΩΣΙΑ,ΤΣΑΚΙΣΤΡΑ,35.029393644310694,32.734189508503775,0.0002,2012-10-06 14:00:00,,Φυσική (κεραυνός)
CY__ASOS,CY,,Μ/Δ1,ΛΥΣΟΣ,35.03738335332857,32.538682357885065,0.02,2012-10-07 15:10:00,,Φυσική (κεραυνός)
CY__ASOS,CY,,ΛΕΥΚΩΣΙΑ,ΚΑΜΠΟΣ ,35.08750714771172,32.741076982753256,0.015,2012-10-07 01:00:00,,Φυσική (κεραυνός)
CY__ASOS,CY,,ΠΑΦΟΣ,ΛΥΣΟΣ,35.01337384206576,32.61753471338333,0.001,2012-10-08 14:00:00,,Φυσική (κεραυνός)
CY__ASOS,CY,,ΛΕΥΚΩΣΙΑ,ΣΑΡΑΝΤΙ ,34.98966482885976,33.011987316655336,0.0045,2012-10-12 10:30:00,,Φυσική (κεραυνός)
CY__ASOS,CY,,ΛΕΥΚΩΣΙΑ,ΦΙΚΑΡΔΟΥ,34.98662326235998,33.19498926444389,1.7,2012-10-18 12:55:00,,Γεωργικές δραστηριότητες
CY__ASOS,CY,,ΛΕΥΚΩΣΙΑ,ΚΑΝΝΑΒΙΑ,35.0054186794989,32.99272293984422,0.0025,2012-10-22 11:30:00,,Φυσική (κεραυνός)
CY__ASOS,CY,,ΛΕΥΚΩΣΙΑ,ΚΑΝΝΑΒΙΑ,34.99416509710862,33.00282714532401,0.001,2012-10-22 11:40:00,,Φυσική (κεραυνός)
CY__ASOS,CY,,ΠΑΦΟΣ,ΙΝΕΙΑ ,34.96353138424136,32.31511631892211,0.0015,2013-02-22 08:20:00,,Δασικές εργασίες
CY__ASOS,CY,,ΛΕΥΚΩΣΙΑ,ΚΟΚΚΙΝΑ,35.164543140075175,32.596612954116424,0.158,2013-02-28 17:30:00,,Γεωργικές δραστηριότητες
CY__ASOS,CY,,ΛΕΥΚΩΣΙΑ,ΚΟΚΚΙΝΑ,35.164822446817794,32.596545690882614,0.031,2013-03-01 17:20:00,,Γεωργικές δραστηριότητες
CY__ASOS,CY,,ΛΕΥΚΩΣΙΑ,ΣΙΑ ,34.942913096101634,33.3704202374096,0.3,2013-03-11 11:35:00,,Στρατιωτικές δραστηριότητες
CY__ASOS,CY,,ΛΕΥΚΩΣΙΑ,ΣΙΑ ,34.94615953711268,33.37036912903034,0.0016,2013-03-12 13:25:00,,Στρατιωτικές δραστηριότητες
CY__ASOS,CY,,ΛΕΥΚΩΣΙΑ,ΑΓΙΟΣ ΕΠΙΦΑΝΙΟΣ ΟΡΕΙΝΗΣ,35.007547472369026,33.1399664321991,12.6767,2013-04-01 14:30:00,,Γεωργικές δραστηριότητες
CY__ASOS,CY,,ΛΕΜΕΣΟΣ,ΛΕΜΕΣΟΣ ,34.7086380002431,33.01464390585909,0.1,2013-04-10 14:00:00,,Ταξιδιώτες / Εκδρομείς
CY__ASOS,CY,,ΛΕΜΕΣΟΣ,ΛΕΜΕΣΟΣ ,34.709783714071555,33.01030875299396,0.75,2013-04-14 16:10:00,,Ταξιδιώτες / Εκδρομείς
CY__ASOS,CY,,ΛΕΥΚΩΣΙΑ,ΠΛΑΤΑΝΙΣΤΑΣΑ ,35.00606952159291,33.06360901911592,0.3633,2013-04-16 10:50:00,,Φυσική (κεραυνός)
CY__ASOS,CY,,ΛΕΥΚΩΣΙΑ,ΚΑΜΠΟΣ ,35.061835633275045,32.75893544949047,0.003,2013-04-16 15:05:00,,Φυσική (κεραυνός)
CY__ASOS,CY,,ΛΕΥΚΩΣΙΑ,ΑΓΙΑ ΜΑΡΙΝΑ ΞΥΛΙΑΤΟΥ,35.04720397761255,33.050669291062434,0.5202,2013-04-30 13:00:00,,Δραστηριότητες σε κατοικίες
CY__ASOS,CY,,ΛΕΥΚΩΣΙΑ,ΚΟΤΣΙΑΤΗΣ ,35.04265624303401,33.36083753386647,0.8,2013-05-03 15:20:00,,Γεωργικές δραστηριότητες
CY__ASOS,CY,,ΛΕΥΚΩΣΙΑ,ΑΓΙΟΣ ΓΕΩΡΓΙΟΣ ΚΑΥΚΑΛΛΟΥ,35.05450960367924,33.00093210851992,0.0954,2013-05-06 14:50:00,,Άγνωστη
CY__ASOS,CY,,ΛΕΥΚΩΣΙΑ,ΣΙΝΑΟΡΟΣ ,35.010275805543856,32.90200597899516,0.6,2013-05-06 15:15:00,,Δραστηριότητες σε κατοικίες
CY__ASOS,CY,,ΛΑΡΝΑΚΑ,ΚΟΡΝΟΣ,34.9166381331702,33.39830593411784,0.2,2013-05-07 15:10:00,,Δραστηριότητες σε κατοικίες
CY__ASOS,CY,,ΛΕΜΕΣΟΣ,ΚΥΠΕΡΟΥΝΤΑ ,34.92979627973832,32.978243618083305,0.05,2013-05-09 01:15:00,,Βραχυκύκλωμα καλωδίων
CY__ASOS,CY,,ΛΕΥΚΩΣΙΑ,ΚΑΠΕΔΕΣ ,34.986591722971454,33.26824693750058,1.0,2013-05-23 10:45:00,,Άγνωστη
CY__ASOS,CY,,ΛΕΥΚΩΣΙΑ,ΦΛΑΣΟΥ,35.0663744153243,32.9160103656292,0.4,2013-05-24 15:30:00,,Άγνωστη
CY__ASOS,CY,,ΛΕΥΚΩΣΙΑ,ΛΥΘΡΟΔΟΝΤΑΣ,34.96279415907328,33.31363817001909,0.8,2013-05-28 02:00:00,,Άγνωστη
CY__ASOS,CY,,ΠΑΦΟΣ,ΑΣΠΡΟΓΙΑ ,34.929162403483886,32.615374776984815,0.002,2013-05-28 12:10:00,,Σκόπιμη
CY__ASOS,CY,,ΛΕΥΚΩΣΙΑ,ΑΓΛΑΝΤΖΙΑ,35.140340796132776,33.386900319230456,0.589,2013-05-30 14:05:00,,Σκόπιμη
CY__ASOS,CY,,ΛΕΥΚΩΣΙΑ,ΣΙΑ ,34.943859382073164,33.37059971136712,0.2,2013-05-30 09:45:00,,Στρατιωτικές δραστηριότητες
CY__ASOS,CY,,ΛΕΥΚΩΣΙΑ,ΛΟΥΡΟΥΚΙΝΑ,35.001510470707665,33.49391581962343,15.7,2013-06-01 18:55:00,,Γεωργικές δραστηριότητες
CY__ASOS,CY,,ΛΕΜΕΣΟΣ,ΜΟΝΙΑΤΗΣ,34.868124981762534,32.91603738998767,0.03,2013-06-03 14:00:00,,Βραχυκύκλωμα καλωδίων
CY__ASOS,CY,,ΛΕΜΕΣΟΣ,ΚΟΙΛΑΝΙ ,34.856367506796495,32.8515712426868,0.1,2013-06-12 12:00:00,,Δραστηριότητες κυνηγών
CY__ASOS,CY,,ΛΕΥΚΩΣΙΑ,ΠΑΝΩ ΠΥΡΓΟΣ  ,35.1701515130226,32.67444345707903,34.7,2013-06-14 15:23:00,,Δραστηριότητες σε κατοικίες
CY__ASOS,CY,,ΛΑΡΝΑΚΑ,ΜΟΣΦΙΛΩΤΗ ,34.972443647489136,33.42332309302254,0.5,2013-06-17 13:30:00,,Γεωργικές δραστηριότητες
CY__ASOS,CY,,ΛΑΡΝΑΚΑ,ΚΟΡΝΟΣ,34.896167393263205,33.398612051921226,0.04,2013-06-17 08:15:00,,Ταξιδιώτες / Εκδρομείς
CY__ASOS,CY,,ΛΕΜΕΣΟΣ,ΛΕΜΕΣΟΣ ,34.71516741608232,33.00989442312903,0.115,2013-06-18 16:50:00,,Άγνωστη
CY__ASOS,CY,,ΛΑΡΝΑΚΑ,ΜΑΡΩΝΙ ,34.75436082598775,33.34703575925074,5.6,2013-06-18 08:00:00,,Δραστηριότητες σε κατοικίες
CY__ASOS,CY,,ΛΑΡΝΑΚΑ,ΧΟΙΡΟΚOΙΤΙΑ ,34.79307837140909,33.3729626881491,0.5,2013-06-19 10:30:00,,Σκόπιμη
CY__ASOS,CY,,ΛΕΥΚΩΣΙΑ,ΜΙΤΣΕΡΟ,35.017200133649666,33.119310450595485,6.5,2013-06-24 14:55:00,,Δραστηριότητες σε κατοικίες
CY__ASOS,CY,,ΠΑΦΟΣ,ΠΟΛΙΣ ΧΡΥΣΟΧΟΥΣ ,35.05879739199959,32.45756402825602,0.0059,2013-06-25 16:10:00,,Ταξιδιώτες / Εκδρομείς
CY__ASOS,CY,,ΛΕΥΚΩΣΙΑ,ΜΙΤΣΕΡΟ,35.01598282809475,33.1192648392542,0.4,2013-06-26 11:20:00,,Άγνωστη
CY__ASOS,CY,,ΛΑΡΝΑΚΑ,ΚΛΑΥΔΙΑ ,34.89560371924495,33.546001499470684,10.3,2013-07-01 15:10:00,,Σκόπιμη
CY__ASOS,CY,,ΛΕΜΕΣΟΣ,ΠΥΡΓΟΣ ,34.727857190155866,33.1866791601037,6.7,2013-07-10 13:00:00,,Σκόπιμη
CY__ASOS,CY,,ΛΕΥΚΩΣΙΑ,ΜΑΘΙΑΤΗΣ ,34.96333734077707,33.329851807683376,3.0,2013-07-23 16:50:00,,Άγνωστη
CY__ASOS,CY,,ΛΑΡΝΑΚΑ,ΠΑΝΩ ΛΕΥΚΑΡΑ,34.89565686812641,33.33138691691857,0.4,2013-07-24 12:30:00,,Δραστηριότητες σε κατοικίες
CY__ASOS,CY,,ΛΑΡΝΑΚΑ,ΑΓΙΑ ΑΝΝΑ ,34.940403785623225,33.49292497168117,0.7,2013-07-27 12:30:00,,Γεωργικές δραστηριότητες
CY__ASOS,CY,,ΛΕΜΕΣΟΣ,ΑΚΑΠΝΟΥ,34.84000576462506,33.17807266452355,3.0,2013-07-31 13:00:00,,Γεωργικές δραστηριότητες
CY__ASOS,CY,,ΛΕΥΚΩΣΙΑ,ΛΥΘΡΟΔΟΝΤΑΣ,34.921817731217054,33.28474303288606,4.5,2013-08-04 20:15:00,,Σκόπιμη
CY__ASOS,CY,,ΛΕΥΚΩΣΙΑ,ΠΑΛΑΙΧΩΡΙ ΟΡΕΙΝΗΣ ,34.97517964776676,33.10887472604886,1.08,2013-08-14 12:30:00,,Δραστηριότητες σε κατοικίες
CY__ASOS,CY,,ΠΑΦΟΣ,ΜΑΜΩΝΙΑ ,34.76623364771692,32.64239123314827,4.8,2013-08-16 21:40:00,,Ταξιδιώτες / Εκδρομείς
CY__ASOS,CY,,ΛΕΥΚΩΣΙΑ,ΑΓΙΟΣ ΕΠΙΦΑΝΙΟΣ ΣΟΛΕΑΣ,35.05791233786245,32.87941308367888,0.5,2013-08-16 12:50:00,,Δραστηριότητες σε κατοικίες
CY__ASOS,CY,,ΠΑΦΟΣ,ΛΥΣΟΣ,35.001397257239525,32.50707114835927,2.955,2013-08-17 00:30:00,,Σκόπιμη
CY__ASOS,CY,,ΠΑΦΟΣ,ΛΥΣΟΣ,35.00060452014252,32.505048553197234,0.374,2013-08-17 00:30:00,,Σκόπιμη
CY__ASOS,CY,,ΠΑΦΟΣ,ΑΡΓΑΚΑ ,35.05937969711266,32.481434187328496,0.727,2013-08-22 16:21:00,,Άγνωστη
CY__ASOS,CY,,ΛΕΥΚΩΣΙΑ,ΚΟΡΑΚΟΥ,35.03467332774876,32.87815355831163,0.1,2013-09-01 17:10:00,,Άγνωστη
CY__ASOS,CY,,ΛΕΥΚΩΣΙΑ,ΛΑΖΑΝΙΑΣ,34.949728777665115,33.17387404132497,12.93,2013-09-08 14:00:00,,Άγνωστη
CY__ASOS,CY,,ΛΕΜΕΣΟΣ,ΠΥΡΓΟΣ ,34.72669079919862,33.17032556537439,1.7,2013-09-08 11:15:00,,Σκόπιμη
CY__ASOS,CY,,ΠΑΦΟΣ,ΙΝΕΙΑ ,34.95311663695782,32.3597894006273,3.15,2013-09-16 16:45:00,,Γεωργικές δραστηριότητες
CY__ASOS,CY,,ΠΑΦΟΣ,ΚΟΥΚΛΙΑ ,34.68576904058401,32.62184233709983,0.1,2013-09-24 14:20:00,,Δραστηριότητες σε κατοικίες
CY__ASOS,CY,,ΛΕΥΚΩΣΙΑ,ΚΑΛΟΠΑΝΑΓΙΩΤΗΣ,35.07909158041877,32.85268274929404,3.0,2013-10-09 10:30:00,,Άγνωστη
CY__ASOS,CY,,ΛΕΥΚΩΣΙΑ,ΣΙΑ ,34.94457822698733,33.3714352405049,0.2,2013-10-14 11:30:00,,Στρατιωτικές δραστηριότητες
CY__ASOS,CY,,ΛΑΡΝΑΚΑ,ΑΒΔΕΛΛΕΡΟ ,35.00517578994458,33.55155056276772,4.2,2013-10-17 14:45:00,,Γεωργικές δραστηριότητες
CY__ASOS,CY,,ΠΑΦΟΣ,ΠΕΓΕΙΑ ,34.9045351269411,32.397612218040145,2.25,2013-10-17 11:20:00,,Γεωργικές δραστηριότητες
CY__ASOS,CY,,ΠΑΦΟΣ,ΙΝΕΙΑ ,34.94304777883606,32.37781618420957,1.33,2013-10-19 14:00:00,,Γεωργικές δραστηριότητες
CY__ASOS,CY,,ΠΑΦΟΣ,ΙΝΕΙΑ ,34.97898390398458,32.34228915158948,0.72,2013-10-19 18:30:00,,Γεωργικές δραστηριότητες
CY__ASOS,CY,,ΠΑΦΟΣ,ΙΝΕΙΑ ,34.957591262129434,32.36706013745421,0.71,2013-10-20 14:15:00,,Γεωργικές δραστηριότητες
CY__ASOS,CY,,ΠΑΦΟΣ,ΙΝΕΙΑ ,34.97507434370763,32.33969117631326,0.24,2013-10-22 15:30:00,,Γεωργικές δραστηριότητες
CY__ASOS,CY,,ΠΑΦΟΣ,ΚΟΥΚΛΙΑ ,34.692395432221275,32.58793391858081,0.3,2013-10-26 15:05:00,,Βραχυκύκλωμα καλωδίων
CY__ASOS,CY,,ΠΑΦΟΣ,ΙΝΕΙΑ ,34.95174672364861,32.36853978476146,1.12,2013-10-28 15:00:00,,Γεωργικές δραστηριότητες
CY__ASOS,CY,,ΠΑΦΟΣ,ΙΝΕΙΑ ,34.94721383079442,32.37431310171323,0.71,2013-10-28 16:20:00,,Γεωργικές δραστηριότητες
CY__ASOS,CY,,ΠΑΦΟΣ,ΙΝΕΙΑ ,34.944757746357354,32.38069436477303,2.12,2013-11-01 16:05:00,,Γεωργικές δραστηριότητες
CY__ASOS,CY,,ΠΑΦΟΣ,ΠΑΝΩ ΑΡΟΔΕΣ ,34.91781295079173,32.38051366946836,5.73,2013-11-01 12:00:00,,Γεωργικές δραστηριότητες
CY__ASOS,CY,,ΠΑΦΟΣ,ΙΝΕΙΑ ,34.945563540837945,32.36559751044563,0.7,2013-11-03 13:10:00,,Γεωργικές δραστηριότητες
CY__ASOS,CY,,ΠΑΦΟΣ,ΙΝΕΙΑ ,34.95467899137109,32.32849713725555,0.88,2013-11-03 10:15:00,,Γεωργικές δραστηριότητες
CY__ASOS,CY,,ΠΑΦΟΣ,ΠΑΝΩ ΠΑΝΑΓΙΑ,34.948317952965176,32.66819323643389,0.002,2013-11-05 11:45:00,,Φυσική (κεραυνός)
CY__ASOS,CY,,ΛΕΥΚΩΣΙΑ,ΑΜΠΕΛΙΚΟΥ,35.080916330697306,32.7985120906117,0.03,2013-11-06 11:00:00,,Φυσική (κεραυνός)
CY__ASOS,CY,,ΠΑΦΟΣ,ΑΓΙΑ ΜΑΡΙΝΑ ΧΡΥΣΟΧΟΥΣ,35.128601911140606,32.52708298668862,0.156,2013-11-08 21:30:00,,Γεωργικές δραστηριότητες
CY__ASOS,CY,,ΠΑΦΟΣ,ΑΓΙΑ ΜΑΡΙΝΑ ΧΡΥΣΟΧΟΥΣ,35.12853652135584,32.52650164895121,0.099,2013-11-09 00:40:00,,Γεωργικές δραστηριότητες
CY__ASOS,CY,,ΠΑΦΟΣ,ΙΝΕΙΑ ,34.94541333919382,32.366190032477455,0.3,2013-11-10 12:45:00,,Γεωργικές δραστηριότητες
CY__ASOS,CY,,ΠΑΦΟΣ,ΙΝΕΙΑ ,34.95287288789089,32.32965089285428,2.83,2013-11-10 11:00:00,,Γεωργικές δραστηριότητες
CY__ASOS,CY,,ΠΑΦΟΣ,ΙΝΕΙΑ ,34.943264277513215,32.357051603913895,1.23,2013-11-13 16:25:00,,Γεωργικές δραστηριότητες
CY__ASOS,CY,,ΠΑΦΟΣ,ΙΝΕΙΑ ,34.95367977914403,32.36572116965738,3.63,2013-11-16 12:00:00,,Γεωργικές δραστηριότητες
CY__ASOS,CY,,ΠΑΦΟΣ,ΓΙΑΛΙΑ ,35.09139780034521,32.5024819607027,0.667,2013-11-17 13:30:00,,Γεωργικές δραστηριότητες
CY__ASOS,CY,,ΠΑΦΟΣ,ΚΑΤΩ ΑΡΟΔΕΣ ,34.93312641358697,32.37386166367163,3.21,2013-11-20 13:00:00,,Γεωργικές δραστηριότητες
CY__ASOS,CY,,ΠΑΦΟΣ,ΙΝΕΙΑ ,34.980754110776665,32.341146540104646,2.09,2013-11-23 09:30:00,,Γεωργικές δραστηριότητες
CY__ASOS,CY,,ΠΑΦΟΣ,ΠΟΜΟΣ,35.15805888174204,32.545413425132494,0.2835,2014-01-07 11:40:00,,Δραστηριότητες σε κατοικίες
CY__ASOS,CY,,ΛΕΜΕΣΟΣ,ΠΕΛΕΝΔΡΙ,34.9159372845753,32.95075805168608,0.676,2014-01-20 13:30:00,,Γεωργικές δραστηριότητες
CY__ASOS,CY,,ΛΕΜΕΣΟΣ,ΦΟΙΝΙ,34.910529773390735,32.81407960534794,0.2,2014-02-17 14:10:00,,Άγνωστη
CY__ASOS,CY,,ΠΑΦΟΣ,ΑΡΓΑΚΑ ,35.07690758223644,32.496032510564085,0.16,2014-03-02 16:30:00,,Γεωργικές δραστηριότητες
CY__ASOS,CY,,ΠΑΦΟΣ,ΛΥΣΟΣ,35.0216679420629,32.50701528498939,0.0511,2014-03-08 12:00:00,,Σκόπιμη
CY__ASOS,CY,,ΛΕΥΚΩΣΙΑ,ΣΙΑ ,34.94725372604575,33.372312483281284,0.2,2014-04-07 14:15:00,,Στρατιωτικές δραστηριότητες
CY__ASOS,CY,,ΛΕΥΚΩΣΙΑ,ΝΙΚΗΤΑΡΙ,35.032431119086965,32.94390216478247,0.0001,2014-04-10 07:01:00,,Φυσική (κεραυνός)
CY__ASOS,CY,,ΛΕΜΕΣΟΣ,ΦΟΙΝΙ,34.89799409536369,32.845367128107824,0.04,2014-04-13 12:30:00,,Δραστηριότητες σε κατοικίες
CY__ASOS,CY,,ΑΜΜΟΧΩΣΤΟΣ,ΣΩΤΗΡΑ ,35.00489356319878,33.93839151379151,0.7,2014-04-27 13:00:00,,Γεωργικές δραστηριότητες
CY__ASOS,CY,,ΠΑΦΟΣ,ΠΟΛΙΣ ΧΡΥΣΟΧΟΥΣ ,35.040800662851616,32.41896922772831,0.295,2014-04-29 14:25:00,,Σκόπιμη
CY__ASOS,CY,,ΠΑΦΟΣ,ΑΓΙΟΣ ΙΩΑΝΝΗΣ,34.87844582855966,32.70496747354332,0.9,2014-05-04 16:00:00,,Άγνωστη
CY__ASOS,CY,,ΑΜΜΟΧΩΣΤΟΣ,ΑΓΙΑ ΝΑΠΑ ,34.99684964820135,33.960390531446606,0.3,2014-05-12 12:35:00,,Ταξιδιώτες / Εκδρομείς
CY__ASOS,CY,,ΛΑΡΝΑΚΑ,ΚΛΑΥΔΙΑ ,34.89368050773797,33.53438771201471,0.136,2014-05-20 16:15:00,,Δασικές εργασίες
CY__ASOS,CY,,ΠΑΦΟΣ,ΑΣΠΡΟΓΙΑ ,34.93125957708401,32.600199976783514,0.005,2014-05-22 15:20:00,,Φυσική (κεραυνός)
CY__ASOS,CY,,ΠΑΦΟΣ,ΑΣΠΡΟΓΙΑ ,34.92923244922977,32.62044393079549,0.4,2014-05-27 15:05:00,,Σκόπιμη
CY__ASOS,CY,,ΠΑΦΟΣ,ΜΑΚΟΥΝΤΑ ,35.051249783853095,32.478075345365426,8.5177,2014-06-09 13:15:00,,Σκόπιμη
CY__ASOS,CY,,ΛΕΥΚΩΣΙΑ,ΑΓΛΑΝΤΖΙΑ,35.127962412977794,33.40283340606115,0.01624,2014-06-09 21:00:00,,Σκόπιμη
CY__ASOS,CY,,ΛΕΥΚΩΣΙΑ,ΑΓΛΑΝΤΖΙΑ,35.125139323558265,33.38073709393788,0.01085,2014-06-10 22:00:00,,Σκόπιμη
CY__ASOS,CY,,ΛΕΥΚΩΣΙΑ,ΓΕΡΙ ,35.12613472979925,33.40739020648837,0.00356,2014-06-10 20:45:00,,Σκόπιμη
CY__ASOS,CY,,ΛΕΥΚΩΣΙΑ,ΓΕΡΙ ,35.124963821061165,33.40158940470205,0.00594,2014-06-11 21:00:00,,Σκόπιμη
CY__ASOS,CY,,ΛΕΥΚΩΣΙΑ,ΜΥΛΙΚΟΥΡΙ ,34.95623745666705,32.70392228025398,0.005,2014-06-12 15:50:00,,Φυσική (κεραυνός)
CY__ASOS,CY,,ΛΕΥΚΩΣΙΑ,ΚΑΠΕΔΕΣ ,34.97160940493237,33.24468890216602,3.0,2014-06-13 14:06:00,,Άγνωστη
CY__ASOS,CY,,ΛΕΥΚΩΣΙΑ,ΑΓΛΑΝΤΖΙΑ,35.15887099812156,33.381223598954,0.00239,2014-06-13 10:55:00,,Σκόπιμη
CY__ASOS,CY,,ΛΑΡΝΑΚΑ,ΑΒΔΕΛΛΕΡΟ ,34.99814556855486,33.52435969878843,2.14,2014-06-17 14:40:00,,Σκόπιμη
CY__ASOS,CY,,ΠΑΦΟΣ,ΙΝΕΙΑ ,34.94395715270895,32.37229000185662,0.27,2014-06-18 19:45:00,,Γεωργικές δραστηριότητες
CY__ASOS,CY,,ΛΕΥΚΩΣΙΑ,ΓΟΥΡΡΗ ,34.982485023413865,33.14253138335659,72.0,2014-06-18 15:30:00,,Δραστηριότητες σε κατοικίες
CY__ASOS,CY,,ΛΕΜΕΣΟΣ,ΛΕΜΕΣΟΣ ,34.650996339888415,32.9981994252305,0.02,2014-06-20 16:40:00,,Σκόπιμη
CY__ASOS,CY,,ΛΕΥΚΩΣΙΑ,ΑΓΛΑΝΤΖΙΑ,35.124274261762615,33.383411027270874,0.2,2014-06-22 16:30:00,,Σκόπιμη
CY__ASOS,CY,,ΛΑΡΝΑΚΑ,ΚΑΛΟ ΧΩΡΙΟ ,34.9219373592586,33.499241103017255,0.5,2014-07-03 13:30:00,,Στρατιωτικές δραστηριότητες
CY__ASOS,CY,,ΠΑΦΟΣ,ΜΑΚΟΥΝΤΑ ,35.05126877950514,32.48039988801488,8.9241,2014-07-17 11:57:00,,Σκόπιμη
CY__ASOS,CY,,ΠΑΦΟΣ,ΝΕΟ ΧΩΡΙΟ,35.053006844273504,32.35246435689973,0.003,2014-07-20 12:55:00,,Ταξιδιώτες / Εκδρομείς
CY__ASOS,CY,,ΠΑΦΟΣ,ΤΙΜΗ ,34.70580463699233,32.49228782210496,0.005,2014-07-21 08:00:00,,Σκόπιμη
CY__ASOS,CY,,ΛΑΡΝΑΚΑ,ΑΓΙΑ ΑΝΝΑ ,34.934987237062856,33.49442555236535,0.1,2014-08-01 12:30:00,,Γεωργικές δραστηριότητες
CY__ASOS,CY,,ΛΕΥΚΩΣΙΑ,ΛΕΥΚΑ,35.059273669207414,32.814795839975865,0.0039,2014-08-06 14:00:00,,Φυσική (κεραυνός)
CY__ASOS,CY,,ΛΑΡΝΑΚΑ,ΜΟΣΦΙΛΩΤΗ ,34.93815410568825,33.4449928006167,0.1,2014-08-16 12:45:00,,Γεωργικές δραστηριότητες
CY__ASOS,CY,,ΠΑΦΟΣ,ΑΡΓΑΚΑ ,35.06113342866399,32.49098607525187,1.1063,2014-09-11 15:45:00,,Σκόπιμη
CY__ASOS,CY,,ΛΕΜΕΣΟΣ,ΑΓΙΟΣ ΜΑΜΑΣ ,34.85476117148073,32.93090668511156,3.96,2014-09-12 12:30:00,,Δραστηριότητες σε κατοικίες
CY__ASOS,CY,,ΛΕΥΚΩΣΙΑ,ΑΛΑΜΠΡΑ ,34.98664767714826,33.42799806223832,0.4,2014-09-14 12:15:00,,Γεωργικές δραστηριότητες
CY__ASOS,CY,,ΛΕΜΕΣΟΣ,ΖΩΟΠΗΓΗ ,34.870263622226595,32.98926642386899,0.26,2014-09-15 14:30:00,,Φυσική (κεραυνός)
CY__ASOS,CY,,ΠΑΦΟΣ,ΠΟΛΙΣ ΧΡΥΣΟΧΟΥΣ ,35.03837883685927,32.41976479063704,1.245,2014-09-15 17:20:00,,Σκόπιμη
CY__ASOS,CY,,ΛΕΜΕΣΟΣ,ΚΟΙΛΑΝΙ ,34.85383863345572,32.855798345331465,0.5,2014-09-21 15:50:00,,Σκόπιμη
CY__ASOS,CY,,ΛΕΜΕΣΟΣ,ΟΜΟΔΟΣ ,34.85744736258573,32.79427784124008,0.5,2014-09-21 14:20:00,,Γεωργικές δραστηριότητες
CY__ASOS,CY,,ΛΕΜΕΣΟΣ,ΚΟΙΛΑΝΙ ,34.85117936489312,32.86445567513835,1.84,2014-09-24 14:55:00,,Γεωργικές δραστηριότητες
CY__ASOS,CY,,ΛΑΡΝΑΚΑ,ΑΡΑΔΙΠΠΟΥ ,34.95523072596501,33.57257325744501,0.08,2014-09-25 15:00:00,,Ταξιδιώτες / Εκδρομείς
CY__ASOS,CY,,ΛΑΡΝΑΚΑ,ΚΟΡΝΟΣ,34.934710683504846,33.40330979287945,0.002,2014-10-12 16:10:00,,Φυσική (κεραυνός)
CY__ASOS,CY,,ΠΑΦΟΣ,ΛΥΣΟΣ,35.04046645375718,32.58595274275965,0.006,2015-05-14 09:00:00,,Φυσική (κεραυνός)
CY__ASOS,CY,,ΠΑΦΟΣ,ΠΑΝΩ ΠΑΝΑΓΙΑ,34.990016772497334,32.64660352299698,0.005,2015-05-14 06:45:00,,Φυσική (κεραυνός)
CY__ASOS,CY,,ΛΕΥΚΩΣΙΑ,ΠΕΡΑ ΧΩΡΙΟ ,35.00577896939964,33.388852138649334,2.9,2015-05-20 12:30:00,,Ταξιδιώτες / Εκδρομείς
CY__ASOS,CY,,ΛΕΥΚΩΣΙΑ,ΛΥΘΡΟΔΟΝΤΑΣ,34.95016039406902,33.32406016639969,0.28,2015-05-20 11:40:00,,Στρατιωτικές δραστηριότητες
CY__ASOS,CY,,ΛΑΡΝΑΚΑ,ΚΟΡΝΟΣ,34.91209145512062,33.39611648251551,0.1,2015-05-20 13:00:00,,Δραστηριότητες σε κατοικίες
CY__ASOS,CY,,ΛΑΡΝΑΚΑ,ΛΑΡΝΑΚΑ ,34.90804825928846,33.61571314434331,3.44,2015-05-26 16:14:00,,Σκόπιμη
CY__ASOS,CY,,ΛΕΜΕΣΟΣ,ΚΑΠΗΛΕΙΟ ,34.83456090094834,32.97647507554094,0.26,2015-05-26 13:20:00,,Σκόπιμη
CY__ASOS,CY,,ΛΕΜΕΣΟΣ,ΚΑΠΗΛΕΙΟ ,34.8318092916128,32.97086549812534,0.14,2015-05-26 13:20:00,,Σκόπιμη
CY__ASOS,CY,,ΛΑΡΝΑΚΑ,ΚΟΦΙΝΟΥ ,34.85547397590059,33.38940158887813,0.4,2015-06-05 10:00:00,,Ταξιδιώτες / Εκδρομείς
CY__ASOS,CY,,ΛΕΥΚΩΣΙΑ,ΚΑΤΩ ΠΥΡΓΟΣ   ,35.14880370008164,32.693576305107605,0.1,2015-06-17 03:45:00,,Σκόπιμη
CY__ASOS,CY,,ΛΕΥΚΩΣΙΑ,ΑΓΙΑ ΜΑΡΙΝΑ ΞΥΛΙΑΤΟΥ,35.05200512658166,33.040232960657214,0.1,2015-06-17 16:15:00,,Γεωργικές δραστηριότητες
CY__ASOS,CY,,ΛΕΥΚΩΣΙΑ,ΣΤΡΟΒΟΛΟΣ ,35.132571409686136,33.37139787763011,1.1,2015-06-18 15:40:00,,Άγνωστη
CY__ASOS,CY,,ΛΑΡΝΑΚΑ,ΚΟΡΝΟΣ,34.90543204610133,33.371849964586254,0.3,2015-07-06 13:00:00,,Γεωργικές δραστηριότητες
CY__ASOS,CY,,ΛΑΡΝΑΚΑ,ΠΑΝΩ ΛΕΥΚΑΡΑ,34.856064143841586,33.34948611974436,0.2,2015-07-13 12:15:00,,Ταξιδιώτες / Εκδρομείς
CY__ASOS,CY,,ΛΑΡΝΑΚΑ,ΚΑΤΩ ΛΕΥΚΑΡΑ ,34.86887626773997,33.36844672325755,0.1,2015-07-15 18:05:00,,Σκόπιμη
CY__ASOS,CY,,ΛΑΡΝΑΚΑ,ΚΟΡΝΟΣ,34.92160989083745,33.38899115313156,0.1,2015-07-17 16:00:00,,Ταξιδιώτες / Εκδρομείς
CY__ASOS,CY,,ΛΕΥΚΩΣΙΑ,ΣΑΡΑΝΤΙ ,34.96820358997047,32.99228805342736,0.02,2015-07-21 17:10:00,,Άγνωστη
CY__ASOS,CY,,ΛΕΥΚΩΣΙΑ,ΑΛΑΜΠΡΑ ,34.98544191790742,33.40893814799308,0.4,2015-07-21 16:10:00,,Ταξιδιώτες / Εκδρομείς
CY__ASOS,CY,,ΛΕΥΚΩΣΙΑ,ΝΗΣΟΥ ,35.01827120198992,33.385020093029254,0.1,2015-07-21 17:05:00,,Δραστηριότητες σε κατοικίες
CY__ASOS,CY,,ΠΑΦΟΣ,ΝΕΟ ΧΩΡΙΟ,35.024506578456204,32.36326724995141,0.0025,2015-07-23 14:30:00,,Σκόπιμη
CY__ASOS,CY,,ΛΑΡΝΑΚΑ,ΜΟΣΦΙΛΩΤΗ ,34.96047635071212,33.42366681394162,2.1,2015-07-25 16:00:00,,Γεωργικές δραστηριότητες
CY__ASOS,CY,,ΛΕΥΚΩΣΙΑ,ΑΓΙΟΣ ΕΠΙΦΑΝΙΟΣ ΟΡΕΙΝΗΣ,34.98525072290355,33.11996531302288,0.01,2015-07-27 07:00:00,,Βραχυκύκλωμα καλωδίων
CY__ASOS,CY,,ΠΑΦΟΣ,ΠΑΝΩ ΠΑΝΑΓΙΑ,34.91293885224138,32.64773329653807,0.09,2015-08-02 09:25:00,,Άλλη
CY__ASOS,CY,,ΛΕΥΚΩΣΙΑ,ΣΙΑ ,34.948287764897,33.396060518189536,0.03,2015-08-12 13:55:00,,Δραστηριότητες σε κατοικίες
CY__ASOS,CY,,ΠΑΦΟΣ,ΠΟΛΙΣ ΧΡΥΣΟΧΟΥΣ ,35.04241550451285,32.41724738374463,0.00097,2015-08-23 16:45:00,,Ταξιδιώτες / Εκδρομείς
CY__ASOS,CY,,ΛΕΜΕΣΟΣ,ΠΑΛΑΙΟΜΥΛΟΣ ,34.926414826567736,32.82990872838372,0.0001,2015-08-23 04:40:00,,Ταξιδιώτες / Εκδρομείς
CY__ASOS,CY,,ΠΑΦΟΣ,ΠΕΓΕΙΑ ,34.8865597487838,32.38606681390134,1.86,2015-08-30 03:20:00,,Σκόπιμη
CY__ASOS,CY,,ΛΕΥΚΩΣΙΑ,ΓΕΡΙ ,35.12605793971681,33.4140848596536,0.2,2015-09-02 14:50:00,,Βραχυκύκλωμα καλωδίων
CY__ASOS,CY,,ΛΕΥΚΩΣΙΑ,ΚΟΡΑΚΟΥ,35.04766497124459,32.86727886089154,0.2,2015-09-08 15:50:00,,Άγνωστη
CY__ASOS,CY,,ΛΕΜΕΣΟΣ,ΑΨΙΟΥ ,34.790809106728,33.00470031246756,4.2,2015-09-10 14:45:00,,Γεωργικές δραστηριότητες
CY__ASOS,CY,,ΛΑΡΝΑΚΑ,ΚΟΡΝΟΣ,34.909980062161296,33.40472134472187,0.3,2015-09-11 13:30:00,,Ταξιδιώτες / Εκδρομείς
CY__ASOS,CY,,ΛΕΥΚΩΣΙΑ,ΑΓΛΑΝΤΖΙΑ,35.15834306455768,33.379925517544024,0.0019,2015-09-17 19:40:00,,Άγνωστη
CY__ASOS,CY,,ΛΕΥΚΩΣΙΑ,ΑΓΛΑΝΤΖΙΑ,35.15834306455768,33.379925517544024,0.00218,2015-09-18 21:40:00,,Άγνωστη
CY__ASOS,CY,,ΛΕΥΚΩΣΙΑ,ΣΙΑ ,34.946909514731395,33.40112445525223,0.1,2015-09-20 16:40:00,,Φυσική (κεραυνός)
CY__ASOS,CY,,ΠΑΦΟΣ,ΠΕΓΕΙΑ ,34.89487697879197,32.33030844466014,0.15,2015-09-22 19:45:00,,Σκόπιμη
CY__ASOS,CY,,ΛΕΥΚΩΣΙΑ,ΚΑΛΟΠΑΝΑΓΙΩΤΗΣ,34.994771144651395,32.820014814358,0.0375,2015-10-02 16:17:00,,Φυσική (κεραυνός)
CY__ASOS,CY,,ΛΕΥΚΩΣΙΑ,ΠΕΔΟΥΛΑΣ ,34.96403553155618,32.81725594653384,0.0016,2015-10-02 17:55:00,,Φυσική (κεραυνός)
CY__ASOS,CY,,ΛΕΥΚΩΣΙΑ,ΑΓΛΑΝΤΖΙΑ,35.131322003822746,33.41201505808923,0.0015,2015-10-07 18:25:00,,Στρατιωτικές δραστηριότητες
CY__ASOS,CY,,ΠΑΦΟΣ,ΚΑΘΙΚΑΣ ,34.91773898958391,32.36790266677392,0.37,2015-10-13 15:00:00,,Σκόπιμη
CY__ASOS,CY,,ΠΑΦΟΣ,ΚΑΘΙΚΑΣ ,34.913560254776364,32.38120243925388,0.06,2015-10-20 18:30:00,,Σκόπιμη
CY__ASOS,CY,,ΠΑΦΟΣ,ΙΝΕΙΑ ,34.94547857136484,32.366594725400084,3.55,2015-10-31 15:30:00,,Σκόπιμη
CY__ASOS,CY,,ΠΑΦΟΣ,ΠΟΛΙΣ ΧΡΥΣΟΧΟΥΣ ,35.03621739542966,32.42032823724443,0.695,2015-11-10 10:30:00,,Κάψιμο σκυβάλων
CY__ASOS,CY,,ΠΑΦΟΣ,ΠΕΓΕΙΑ ,34.90289349654146,32.39389176401062,2.95,2015-11-12 14:35:00,,Σκόπιμη
CY__ASOS,CY,,ΠΑΦΟΣ,ΙΝΕΙΑ ,34.978884658995675,32.34227898948262,0.29,2015-11-20 14:00:00,,Σκόπιμη
CY__ASOS,CY,,ΠΑΦΟΣ,ΠΕΓΕΙΑ ,34.90239165664381,32.39271333618365,0.61,2015-11-22 15:00:00,,Δραστηριότητες κυνηγών
CY__ASOS,CY,,ΠΑΦΟΣ,ΠΕΓΕΙΑ ,34.903166673415576,32.38901895984566,7.38,2015-11-25 09:30:00,,Δραστηριότητες κυνηγών
CY__ASOS,CY,,ΠΑΦΟΣ,ΠΑΝΩ ΠΑΝΑΓΙΑ,34.918353208513345,32.6220048129156,1.15,2016-02-15 13:10:00,,Γεωργικές δραστηριότητες
CY__ASOS,CY,,ΠΑΦΟΣ,ΠΑΝΩ ΠΑΝΑΓΙΑ,34.91464034069495,32.64061029866258,0.4,2016-02-19 13:50:00,,Σκόπιμη
CY__ASOS,CY,,ΛΕΜΕΣΟΣ,ΠΑΝΩ ΑΜΙΑΝΤΟΣ ,34.92767334506928,32.92395864811808,0.005,2016-02-21 10:05:00,,Δασικές εργασίες
CY__ASOS,CY,,ΛΕΜΕΣΟΣ,ΚΟΙΛΑΝΙ ,34.85409760997734,32.85367566712851,1.2,2016-02-24 10:45:00,,Γεωργικές δραστηριότητες
CY__ASOS,CY,,ΠΑΦΟΣ,ΠΑΝΩ ΑΡΧΙΜΑΝΔΡΙΤΑ,34.72866001335361,32.67581276418371,7.0,2016-03-02 13:45:00,,Άγνωστη
CY__ASOS,CY,,ΠΑΦΟΣ,ΑΓΙΟΣ ΙΩΑΝΝΗΣ,34.874222274791414,32.6856481652635,1.8,2016-03-09 18:50:00,,Σκόπιμη
CY__ASOS,CY,,ΛΑΡΝΑΚΑ,ΑΓΙΟΙ ΒΑΒΑΤΣΙΝΙΑΣ ,34.89919096551574,33.176317720260975,39.0,2016-03-09 13:20:00,,Γεωργικές δραστηριότητες
CY__ASOS,CY,,ΠΑΦΟΣ,ΑΣΠΡΟΓΙΑ ,34.923463169878445,32.61247813989452,0.16,2016-03-10 11:52:00,,Γεωργικές δραστηριότητες
CY__ASOS,CY,,ΑΜΜΟΧΩΣΤΟΣ,ΑΓΙΑ ΝΑΠΑ ,34.98711137552996,33.96265432989022,0.05,2016-03-30 14:08:00,,Ταξιδιώτες / Εκδρομείς
CY__ASOS,CY,,ΛΕΥΚΩΣΙΑ,ΚΟΡΑΚΟΥ,35.05101126096936,32.88583804967507,0.1,2016-04-05 14:00:00,,Άγνωστη
CY__ASOS,CY,,ΛΑΡΝΑΚΑ,ΑΓΙΑ ΑΝΝΑ ,34.94684863126184,33.49356587382521,3.5,2016-04-05 11:45:00,,Γεωργικές δραστηριότητες
CY__ASOS,CY,,ΛΕΥΚΩΣΙΑ,ΓΕΡΑΚΙΕΣ ,35.01784235014168,32.77424568910983,0.0005,2016-04-09 17:30:00,,Βραχυκύκλωμα καλωδίων
CY__ASOS,CY,,ΠΑΦΟΣ,ΠΑΝΩ ΠΑΝΑΓΙΑ,34.929985288195915,32.645788113850415,0.82,2016-04-10 20:47:00,,Σκόπιμη
CY__ASOS,CY,,ΛΑΡΝΑΚΑ,ΒΟΡΟΚΛΗΝΗ,34.98064002669155,33.64313085672159,0.06,2016-04-16 13:30:00,,Ταξιδιώτες / Εκδρομείς
CY__ASOS,CY,,ΛΕΥΚΩΣΙΑ,ΣΙΑ ,34.94693492751,33.37040547063813,0.8,2016-04-20 14:30:00,,Στρατιωτικές δραστηριότητες
CY__ASOS,CY,,ΠΑΦΟΣ,ΙΝΕΙΑ ,34.94392029073296,32.36692428829565,0.05,2016-04-24 16:20:00,,Σκόπιμη
CY__ASOS,CY,,ΑΜΜΟΧΩΣΤΟΣ,ΠΑΡΑΛΙΜΝΙ ,35.01616344540032,33.99625922713813,6.0,2016-04-26 12:02:00,,Άγνωστη
CY__ASOS,CY,,ΛΕΥΚΩΣΙΑ,ΚΟΡΑΚΟΥ,35.05100222298239,32.88581613123911,0.1,2016-04-30 09:20:00,,Άγνωστη
CY__ASOS,CY,,ΛΕΜΕΣΟΣ,ΦΟΙΝΙ,34.895553519543355,32.84085149855207,0.01,2016-05-01 16:00:00,,Σκόπιμη
CY__ASOS,CY,,ΠΑΦΟΣ,ΑΝΑΔΙΟΥ ,34.96326129353957,32.553283215518704,5.8,2016-05-02 12:55:00,,Σκόπιμη
CY__ASOS,CY,,ΛΕΥΚΩΣΙΑ,ΛΥΘΡΟΔΟΝΤΑΣ,34.946361278465055,33.28177238703402,0.01,2016-05-02 15:00:00,,Σκόπιμη
CY__ASOS,CY,,ΛΕΥΚΩΣΙΑ,ΛΑΖΑΝΙΑΣ,34.95425431546011,33.22416693987681,0.02,2016-05-02 16:30:00,,Σκόπιμη
CY__ASOS,CY,,ΛΕΥΚΩΣΙΑ,ΛΑΖΑΝΙΑΣ,34.9529008899634,33.2246013513832,0.0006,2016-05-02 17:00:00,,Σκόπιμη
CY__ASOS,CY,,ΛΕΜΕΣΟΣ,ΠΑΝΩ ΠΟΛΕΜΙΔΙΑ ,34.71820532297088,32.98078926414125,2.17,2016-05-02 15:15:00,,Γεωργικές δραστηριότητες
CY__ASOS,CY,,ΛΕΥΚΩΣΙΑ,ΚΟΡΑΚΟΥ,35.04694792175697,32.88010902715282,0.05,2016-05-03 01:15:00,,Σκόπιμη
CY__ASOS,CY,,ΛΕΥΚΩΣΙΑ,ΜΑΘΙΑΤΗΣ ,34.9800998563251,33.34636394893122,1.1,2016-05-03 04:00:00,,Ταξιδιώτες / Εκδρομείς
CY__ASOS,CY,,ΛΑΡΝΑΚΑ,ΔΕΛΙΚΗΠΟΣ ,34.93177672491754,33.3329664968886,0.2,2016-05-04 21:00:00,,Σκόπιμη
CY__ASOS,CY,,ΛΕΥΚΩΣΙΑ,ΠΑΝΩ ΠΥΡΓΟΣ  ,35.139135820729884,32.67233860419194,2.4,2016-05-14 15:25:00,,Σκόπιμη
CY__ASOS,CY,,ΛΕΜΕΣΟΣ,ΠΥΡΓΟΣ ,34.724929744238835,33.19034245837271,1.8,2016-05-17 15:58:00,,Σκόπιμη
CY__ASOS,CY,,ΛΕΥΚΩΣΙΑ,ΕΠΙΣΚΟΠΕΙΟ ,35.035363497247964,33.215628454148764,4.0,2016-05-18 13:40:00,,Κάψιμο σκυβάλων
CY__ASOS,CY,,ΛΑΡΝΑΚΑ,ΠΥΡΓΑ,34.911118803332926,33.41992106778355,0.05,2016-05-19 16:50:00,,Στρατιωτικές δραστηριότητες
CY__ASOS,CY,,ΛΑΡΝΑΚΑ,ΠΥΡΓΑ,34.90582350095099,33.41526391728569,0.7,2016-05-22 12:00:00,,Ταξιδιώτες / Εκδρομείς
CY__ASOS,CY,,ΛΕΥΚΩΣΙΑ,ΛΥΘΡΟΔΟΝΤΑΣ,34.94511829349365,33.3142717323601,0.04,2016-05-23 20:50:00,,Ταξιδιώτες / Εκδρομείς
CY__ASOS,CY,,ΛΕΥΚΩΣΙΑ,ΚΑΛΟΠΑΝΑΓΙΩΤΗΣ,34.986793078878144,32.85553273016669,0.0038,2016-05-28 10:30:00,,Φυσική (κεραυνός)
CY__ASOS,CY,,ΛΕΥΚΩΣΙΑ,ΓΕΡΑΚΙΕΣ ,34.98071386680233,32.80881556037441,0.001,2016-05-28 10:30:00,,Φυσική (κεραυνός)
CY__ASOS,CY,,ΛΕΥΚΩΣΙΑ,ΜΥΛΙΚΟΥΡΙ ,34.941546073319856,32.77443308111503,0.001,2016-05-28 13:30:00,,Φυσική (κεραυνός)
CY__ASOS,CY,,ΛΕΥΚΩΣΙΑ,ΚΑΚΟΠΕΤΡΙΑ,34.96701235163079,32.866554625038205,0.0154,2016-05-29 14:30:00,,Φυσική (κεραυνός)
CY__ASOS,CY,,ΠΑΦΟΣ,ΑΣΠΡΟΓΙΑ ,34.92845527776036,32.59750915572103,5.8,2016-05-31 13:22:00,,Σκόπιμη
CY__ASOS,CY,,ΛΕΥΚΩΣΙΑ,ΜΑΘΙΑΤΗΣ ,34.97793089476245,33.34487579750956,0.1,2016-05-31 15:10:00,,Ταξιδιώτες / Εκδρομείς
CY__ASOS,CY,,ΛΕΥΚΩΣΙΑ,ΑΜΠΕΛΙΚΟΥ,35.078571510221714,32.803815968696846,0.027,2016-06-02 12:30:00,,Γεωργικές δραστηριότητες
CY__ASOS,CY,,ΛΕΥΚΩΣΙΑ,ΛΥΜΠΙΑ ,34.99511227378633,33.44382156527021,0.015,2016-06-06 12:05:00,,Ταξιδιώτες / Εκδρομείς
CY__ASOS,CY,,ΛΑΡΝΑΚΑ,ΠΑΝΩ ΛΕΥΚΑΡΑ,34.88037492646119,33.34969842181314,0.7,2016-06-10 13:20:00,,Σκόπιμη
CY__ASOS,CY,,ΛΕΜΕΣΟΣ,ΓΕΡΑΣΑ ,34.821171662722705,33.007512323432024,0.002,2016-06-13 02:05:00,,Σκόπιμη
CY__ASOS,CY,,ΛΕΜΕΣΟΣ,ΚΑΛΟ ΧΩΡΙΟ,34.83159604803345,33.00865065010804,0.037,2016-06-14 10:55:00,,Ταξιδιώτες / Εκδρομείς
CY__ASOS,CY,,ΛΕΥΚΩΣΙΑ,ΑΓΙΟΣ ΕΠΙΦΑΝΙΟΣ ΟΡΕΙΝΗΣ,35.0029827034779,33.106336156491345,0.0379,2016-06-14 13:06:00,,Δασικές εργασίες
CY__ASOS,CY,,ΠΑΦΟΣ,ΑΡΓΑΚΑ ,35.069782251238216,32.49561566533988,763.3,2016-06-18 14:35:00,,Δραστηριότητες σε κατοικίες
CY__ASOS,CY,,ΛΕΥΚΩΣΙΑ,ΜΑΘΙΑΤΗΣ ,34.94879772621242,33.33112968350616,0.05,2016-06-19 16:30:00,,Στρατιωτικές δραστηριότητες
CY__ASOS,CY,,ΛΕΥΚΩΣΙΑ,ΕΥΡΥΧΟΥ ,35.032152847140054,32.90302135741867,1885.8,2016-06-19 13:50:00,,Δραστηριότητες σε κατοικίες
CY__ASOS,CY,,ΛΕΥΚΩΣΙΑ,ΛΥΘΡΟΔΟΝΤΑΣ,34.95631754916026,33.30018532145404,0.2,2016-06-20 14:30:00,,Γεωργικές δραστηριότητες
CY__ASOS,CY,,ΛΑΡΝΑΚΑ,ΜΕΝΟΓΕΙΑ ,34.84308114336766,33.442894505559394,2.0,2016-06-22 13:45:00,,Γεωργικές δραστηριότητες
CY__ASOS,CY,,ΠΑΦΟΣ,ΠΑΝΩ ΑΡΧΙΜΑΝΔΡΙΤΑ,34.74119123171709,32.64854033544652,0.04,2016-07-07 15:50:00,,Σκόπιμη
CY__ASOS,CY,,ΠΑΦΟΣ,ΠΑΝΩ ΑΡΧΙΜΑΝΔΡΙΤΑ,34.734037006264984,32.64435419233844,0.01,2016-07-07 15:50:00,,Σκόπιμη
CY__ASOS,CY,,ΛΕΜΕΣΟΣ,ΑΨΙΟΥ ,34.79766226825471,33.010079178283334,0.4,2016-07-12 09:05:00,,Σκόπιμη
CY__ASOS,CY,,ΛΑΡΝΑΚΑ,ΛΑΡΝΑΚΑ ,34.909614631855725,33.61801264871183,0.0015,2016-07-24 22:15:00,,Σκόπιμη
CY__ASOS,CY,,ΛΑΡΝΑΚΑ,ΛΑΡΝΑΚΑ ,34.90690065425377,33.61973274218114,0.0075,2016-07-26 22:15:00,,Σκόπιμη
CY__ASOS,CY,,ΛΕΥΚΩΣΙΑ,ΛΥΘΡΟΔΟΝΤΑΣ,34.95403379572257,33.30474420057605,0.1,2016-08-05 20:55:00,,Σκόπιμη
CY__ASOS,CY,,ΛΕΥΚΩΣΙΑ,ΜΑΘΙΑΤΗΣ ,34.973310305836975,33.336541521123785,1.0,2016-08-08 00:30:00,,Σκόπιμη
CY__ASOS,CY,,ΛΑΡΝΑΚΑ,ΠΑΝΩ ΛΕΥΚΑΡΑ,34.87635068352471,33.26914668056771,1.5,2016-08-09 03:00:00,,Σκόπιμη
CY__ASOS,CY,,ΠΑΦΟΣ,ΛΥΣΟΣ,35.03502703585894,32.63897673900486,0.002,2016-08-16 18:10:00,,Ταξιδιώτες / Εκδρομείς
CY__ASOS,CY,,ΛΕΥΚΩΣΙΑ,ΠΕΡΑ ,35.03036917975089,33.25236239380299,0.6,2016-08-21 13:20:00,,Δραστηριότητες σε κατοικίες
CY__ASOS,CY,,ΛΕΥΚΩΣΙΑ,ΚΑΜΠΙΑ ,35.00075950675228,33.2676027648232,1.1,2016-08-23 12:55:00,,Άγνωστη
CY__ASOS,CY,,ΛΕΥΚΩΣΙΑ,ΛΥΘΡΟΔΟΝΤΑΣ,34.96288399317822,33.31376995678426,0.4,2016-08-29 13:55:00,,Σκόπιμη
CY__ASOS,CY,,ΛΑΡΝΑΚΑ,ΠΥΡΓΑ,34.930857946054395,33.42770810488693,0.015,2016-08-29 22:40:00,,Ταξιδιώτες / Εκδρομείς
CY__ASOS,CY,,ΛΕΥΚΩΣΙΑ,ΛΥΘΡΟΔΟΝΤΑΣ,34.94415258263032,33.31459658403797,0.004,2016-08-31 07:10:00,,Σκόπιμη
CY__ASOS,CY,,ΛΕΜΕΣΟΣ,ΚΑΠΗΛΕΙΟ ,34.825649746491415,32.96900862219138,1.17,2016-08-31 13:30:00,,Δραστηριότητες σε κατοικίες
CY__ASOS,CY,,ΛΑΡΝΑΚΑ,ΔΕΛΙΚΗΠΟΣ ,34.927747145058554,33.345443051835744,0.1,2016-09-07 15:40:00,,Ταξιδιώτες / Εκδρομείς
CY__ASOS,CY,,ΛΕΥΚΩΣΙΑ,ΜΑΘΙΑΤΗΣ ,34.971045468047514,33.337069042088814,0.2,2016-09-11 22:55:00,,Σκόπιμη
CY__ASOS,CY,,ΛΕΥΚΩΣΙΑ,ΛΥΘΡΟΔΟΝΤΑΣ,34.95838106710185,33.30798050613079,0.4,2016-09-18 15:18:00,,Σκόπιμη
CY__ASOS,CY,,ΛΕΥΚΩΣΙΑ,ΣΙΑ ,34.957141181082136,33.37965183417238,0.3,2016-09-23 18:00:00,,Γεωργικές δραστηριότητες
CY__ASOS,CY,,ΛΑΡΝΑΚΑ,ΚΟΡΝΟΣ,34.92555500900606,33.39320312662208,0.03,2016-09-30 15:15:00,,Γεωργικές δραστηριότητες
CY__ASOS,CY,,ΑΜΜΟΧΩΣΤΟΣ,ΑΓΙΑ ΝΑΠΑ ,34.98286933595602,34.03652376676358,0.1,2016-10-04 13:31:00,,Σκόπιμη
CY__ASOS,CY,,ΠΑΦΟΣ,ΑΜΑΡΓΕΤΗ ,34.7923682177432,32.59123030632264,2.45,2016-10-08 10:00:00,,Σκόπιμη
CY__ASOS,CY,,ΛΕΥΚΩΣΙΑ,ΚΑΜΠΟΣ ,35.044881115033505,32.7363322813911,0.0082,2016-10-16 18:36:00,,Άγνωστη
CY__ASOS,CY,,ΛΕΥΚΩΣΙΑ,ΜΑΘΙΑΤΗΣ ,34.97980008445752,33.33427827730481,0.3,2016-10-23 19:55:00,,Σκόπιμη
CY__ASOS,CY,,ΛΕΜΕΣΟΣ,ΦΟΙΝΙ,34.91581154600324,32.8515847389502,0.0119,2016-10-25 11:30:00,,Φυσική (κεραυνός)
CY__ASOS,CY,,ΛΑΡΝΑΚΑ,ΚΕΛΛΙΑ ,34.994559776176594,33.60691477419063,0.85,2016-10-29 13:20:00,,Σκόπιμη
CY__ASOS,CY,,ΠΑΦΟΣ,ΠΕΓΕΙΑ ,34.899877954224266,32.39495371082966,0.51,2016-11-02 10:40:00,,Γεωργικές δραστηριότητες
CY__ASOS,CY,,ΠΑΦΟΣ,ΚΙΟΣ,34.967575346154526,32.53270959723602,1.7975,2016-11-13 10:10:00,,Σκόπιμη
CY__ASOS,CY,,ΠΑΦΟΣ,ΠΑΝΩ ΑΡΧΙΜΑΝΔΡΙΤΑ,34.74371483474451,32.65436342744747,0.2,2016-11-16 12:00:00,,Σκόπιμη
CY__ASOS,CY,,ΛΕΥΚΩΣΙΑ,ΣΙΑ ,34.947019644636086,33.37219095779689,0.5,2016-11-24 11:30:00,,Στρατιωτικές δραστηριότητες
CY__ASOS,CY,,ΠΑΦΟΣ,ΙΝΕΙΑ ,34.94370172491652,32.357924266917344,0.56,2016-11-28 15:45:00,,Γεωργικές δραστηριότητες
CY__ASOS,CY,,ΠΑΦΟΣ,ΑΓΙΟΣ ΙΩΑΝΝΗΣ,34.87888837696945,32.69072962998108,5.5,2017-03-27 13:20:00,,Σκόπιμη
CY__ASOS,CY,,ΠΑΦΟΣ,ΚΥΝΟΥΣΑ ,35.04121608020411,32.497896392133704,0.0232,2017-04-08 13:35:00,,Σκόπιμη
CY__ASOS,CY,,ΠΑΦΟΣ,ΠΟΛΙΣ ΧΡΥΣΟΧΟΥΣ ,35.041800440429675,32.42061772709581,0.003,2017-04-10 13:25:00,,Άγνωστη
CY__ASOS,CY,,ΠΑΦΟΣ,ΙΝΕΙΑ ,34.96495911128685,32.34508492964934,1.51,2017-04-23 11:00:00,,Σκόπιμη
CY__ASOS,CY,,ΛΕΥΚΩΣΙΑ,ΣΙΑ ,34.943562878515046,33.37024794172249,0.4,2017-04-26 17:40:00,,Στρατιωτικές δραστηριότητες
CY__ASOS,CY,,ΛΕΥΚΩΣΙΑ,ΑΓΙΟΣ ΕΠΙΦΑΝΙΟΣ ΟΡΕΙΝΗΣ,34.99660500169098,33.09845988498905,0.6286,2017-04-27 06:55:00,,Σκόπιμη
CY__ASOS,CY,,ΛΕΥΚΩΣΙΑ,ΛΥΘΡΟΔΟΝΤΑΣ,34.943199302141046,33.30294098544099,0.072,2017-04-28 09:00:00,,Άγνωστη
CY__ASOS,CY,,ΛΕΥΚΩΣΙΑ,ΚΑΜΠΙΑ ,34.98720000452714,33.22149555302445,0.1,2017-05-01 14:00:00,,Φυσική (κεραυνός)
CY__ASOS,CY,,ΛΑΡΝΑΚΑ,ΚΟΡΝΟΣ,34.931314650581456,33.38269721051553,0.7,2017-05-10 13:00:00,,Γεωργικές δραστηριότητες
CY__ASOS,CY,,ΛΕΥΚΩΣΙΑ,ΣΙΑ ,34.9447318899294,33.3713154695248,0.3,2017-05-16 11:50:00,,Στρατιωτικές δραστηριότητες
CY__ASOS,CY,,ΛΕΥΚΩΣΙΑ,ΚΑΛΟΠΑΝΑΓΙΩΤΗΣ,34.991481830679305,32.840852323981,0.0001,2017-05-23 11:10:00,,Φυσική (κεραυνός)
CY__ASOS,CY,,ΛΑΡΝΑΚΑ,ΚΟΡΝΟΣ,34.90437067939133,33.40215437428447,0.1,2017-05-26 12:56:00,,Ταξιδιώτες / Εκδρομείς
CY__ASOS,CY,,ΛΕΥΚΩΣΙΑ,ΣΙΑ ,34.93863505822419,33.410851956378046,0.2,2017-05-26 13:17:00,,Ταξιδιώτες / Εκδρομείς
CY__ASOS,CY,,ΠΑΦΟΣ,ΔΡΟΥΣΕΙΑ,34.972650312901784,32.395404989249364,0.22,2017-05-30 17:00:00,,Σκόπιμη
CY__ASOS,CY,,ΛΑΡΝΑΚΑ,ΑΓΙΑ ΑΝΝΑ ,34.94525760825954,33.50549322634149,0.46,2017-05-30 19:00:00,,Γεωργικές δραστηριότητες
CY__ASOS,CY,,ΛΑΡΝΑΚΑ,ΚΑΛΟ ΧΩΡΙΟ ,34.91729005943512,33.50223448643852,33.0,2017-05-30 10:00:00,,Στρατιωτικές δραστηριότητες
CY__ASOS,CY,,ΑΜΜΟΧΩΣΤΟΣ,ΑΓΙΑ ΝΑΠΑ ,34.99485021066292,34.00575297967783,0.66,2017-05-31 16:30:00,,Σκόπιμη
CY__ASOS,CY,,ΠΑΦΟΣ,ΑΣΠΡΟΓΙΑ ,34.92215343582841,32.595207949557256,1.49,2017-06-10 15:45:00,,Σκόπιμη
CY__ASOS,CY,,ΛΑΡΝΑΚΑ,ΚΟΡΝΟΣ,34.89259306125161,33.3996454422685,0.022,2017-06-10 18:00:00,,Ταξιδιώτες / Εκδρομείς
CY__ASOS,CY,,ΠΑΦΟΣ,ΑΓΙΟΣ ΝΙΚΟΛΑΟΣ,34.8882113585293,32.74890475640597,0.015,2017-06-13 11:55:00,,Στρατιωτικές δραστηριότητες
CY__ASOS,CY,,ΛΕΜΕΣΟΣ,ΚΑΜΙΝΑΡΙΑ ,34.89852554990032,32.77559054992739,0.0002,2017-06-13 12:15:00,,Στρατιωτικές δραστηριότητες
CY__ASOS,CY,,ΛΕΥΚΩΣΙΑ,ΝΙΚΗΤΑΡΙ,35.05873793061975,32.98591895254664,0.07,2017-06-14 16:20:00,,Άγνωστη
CY__ASOS,CY,,ΠΑΦΟΣ,ΚΑΝΝΑΒΙΟΥ,34.9209617681326,32.58412338507548,3.02,2017-06-24 13:40:00,,Σκόπιμη
CY__ASOS,CY,,ΛΕΜΕΣΟΣ,ΚΑΛΟ ΧΩΡΙΟ,34.8465198317965,33.01382603701702,0.002,2017-06-24 16:10:00,,Ταξιδιώτες / Εκδρομείς
CY__ASOS,CY,,ΛΑΡΝΑΚΑ,ΤΡΟΥΛΛΟΙ ,35.02369081872359,33.61836567886021,0.8,2017-06-24 11:22:00,,Ταξιδιώτες / Εκδρομείς
CY__ASOS,CY,,ΛΑΡΝΑΚΑ,ΚΟΡΝΟΣ,34.8868410119808,33.39930022730899,0.1,2017-06-25 09:10:00,,Γεωργικές δραστηριότητες
CY__ASOS,CY,,ΛΕΥΚΩΣΙΑ,ΠΑΝΩ ΠΥΡΓΟΣ  ,35.13321134022423,32.66566669871956,1.9,2017-06-29 05:59:00,,Σκόπιμη
CY__ASOS,CY,,ΛΕΥΚΩΣΙΑ,ΛΥΘΡΟΔΟΝΤΑΣ,34.962992229810574,33.3137594156707,0.5,2017-07-01 19:15:00,,Σκόπιμη
CY__ASOS,CY,,ΛΕΥΚΩΣΙΑ,ΑΝΑΛΙΟΝΤΑΣ,35.00738871204877,33.278989506028424,2.6,2017-07-02 19:00:00,,Άγνωστη
CY__ASOS,CY,,ΛΕΜΕΣΟΣ,ΠΑΝΩ ΠΟΛΕΜΙΔΙΑ ,34.713642759527616,32.98408839967633,0.9592,2017-07-02 11:45:00,,Γεωργικές δραστηριότητες
CY__ASOS,CY,,ΛΕΥΚΩΣΙΑ,ΛΥΘΡΟΔΟΝΤΑΣ,34.95174956459243,33.30226054341145,0.1,2017-07-04 19:20:00,,Σκόπιμη
CY__ASOS,CY,,ΛΕΥΚΩΣΙΑ,ΛΥΘΡΟΔΟΝΤΑΣ,34.95252511537025,33.30940430897656,0.4,2017-07-05 13:34:00,,Σκόπιμη
CY__ASOS,CY,,ΛΕΥΚΩΣΙΑ,ΤΣΑΚΙΣΤΡΑ,34.98359164519575,32.73298997308278,0.0008,2017-07-06 07:45:00,,Γεωργικές δραστηριότητες
CY__ASOS,CY,,ΛΕΥΚΩΣΙΑ,ΚΑΠΕΔΕΣ ,34.98496587540633,33.26121841448698,0.4,2017-07-11 04:40:00,,Κάψιμο σκυβάλων
CY__ASOS,CY,,ΛΕΥΚΩΣΙΑ,ΑΓΛΑΝΤΖΙΑ,35.132134876005736,33.38699321451282,0.00025,2017-07-12 13:15:00,,Ταξιδιώτες / Εκδρομείς
CY__ASOS,CY,,ΛΕΥΚΩΣΙΑ,ΜΑΘΙΑΤΗΣ ,34.96295524430947,33.331088045439685,0.325,2017-07-13 18:02:00,,Σκόπιμη
CY__ASOS,CY,,ΛΕΥΚΩΣΙΑ,ΛΥΘΡΟΔΟΝΤΑΣ,34.95226299735399,33.30964427450521,0.1,2017-07-19 12:25:00,,Σκόπιμη
CY__ASOS,CY,,ΛΕΥΚΩΣΙΑ,ΛΥΘΡΟΔΟΝΤΑΣ,34.95824663925246,33.30765141053324,0.1,2017-07-19 14:40:00,,Σκόπιμη
CY__ASOS,CY,,ΛΕΥΚΩΣΙΑ,ΛΥΘΡΟΔΟΝΤΑΣ,34.9585284243181,33.310314073409046,0.2,2017-07-29 17:25:00,,Σκόπιμη
CY__ASOS,CY,,ΛΕΥΚΩΣΙΑ,ΛΥΘΡΟΔΟΝΤΑΣ,34.96137142152706,33.31285505019178,8.7,2017-07-30 15:10:00,,Σκόπιμη
CY__ASOS,CY,,ΛΕΥΚΩΣΙΑ,ΜΑΘΙΑΤΗΣ ,34.984842916139264,33.34001812840811,0.7,2017-08-15 19:45:00,,Άγνωστη
CY__ASOS,CY,,ΛΑΡΝΑΚΑ,ΚΟΡΝΟΣ,34.901474527379435,33.39988548113705,0.049,2017-08-24 09:10:00,,Ταξιδιώτες / Εκδρομείς
CY__ASOS,CY,,ΛΑΡΝΑΚΑ,ΚΕΛΛΙΑ ,34.98973641230799,33.61391364292177,1.3,2017-08-25 13:00:00,,Γεωργικές δραστηριότητες
CY__ASOS,CY,,ΛΕΜΕΣΟΣ,ΚΟΙΛΑΝΙ ,34.85506187653333,32.85315980623567,0.4,2017-08-27 10:40:00,,Σκόπιμη
CY__ASOS,CY,,ΠΑΦΟΣ,ΠΑΝΩ ΑΡΟΔΕΣ ,34.92023384622708,32.37781325039235,0.34,2017-08-27 11:00:00,,Σκόπιμη
CY__ASOS,CY,,ΠΑΦΟΣ,ΠΟΛΙΣ ΧΡΥΣΟΧΟΥΣ ,35.03087287716305,32.42468525266234,3.61,2017-09-06 16:30:00,,Άγνωστη
CY__ASOS,CY,,ΛΑΡΝΑΚΑ,ΠΥΛΑ ,34.99017254732872,33.69367398574665,0.1,2017-09-06 14:30:00,,Δασικές εργασίες
CY__ASOS,CY,,ΛΕΥΚΩΣΙΑ,ΑΓΙΟΣ ΕΠΙΦΑΝΙΟΣ ΟΡΕΙΝΗΣ,34.996024204416884,33.1309830313525,0.0398,2017-09-14 14:10:00,,Άλλη
CY__ASOS,CY,,ΛΕΥΚΩΣΙΑ,ΑΓΛΑΝΤΖΙΑ,35.15638650985106,33.382738166153494,0.03107,2017-09-18 14:20:00,,Σκόπιμη
CY__ASOS,CY,,ΛΑΡΝΑΚΑ,ΚΟΡΝΟΣ,34.91712712865105,33.40586213033817,0.146,2017-09-18 13:00:00,,Ταξιδιώτες / Εκδρομείς
CY__ASOS,CY,,ΛΑΡΝΑΚΑ,ΚΛΑΥΔΙΑ ,34.89376036319831,33.534683728277045,0.3,2017-09-20 11:12:00,,Κάψιμο σκυβάλων
CY__ASOS,CY,,ΛΑΡΝΑΚΑ,ΚΛΑΥΔΙΑ ,34.889993438385915,33.527950703400975,0.4,2017-10-13 13:30:00,,Σκόπιμη
CY__ASOS,CY,,ΠΑΦΟΣ,ΠΕΓΕΙΑ ,34.8950779810996,32.39260299899638,0.17,2017-10-15 18:20:00,,Σκόπιμη
CY__ASOS,CY,,ΛΕΥΚΩΣΙΑ,ΣΙΑ ,34.94196081061837,33.41135038220512,0.0007,2017-10-22 17:35:00,,Ταξιδιώτες / Εκδρομείς
CY__ASOS,CY,,ΠΑΦΟΣ,ΠΕΓΕΙΑ ,34.89879770107547,32.39532281909211,1.63,2017-10-24 17:27:00,,Σκόπιμη
CY__ASOS,CY,,ΛΕΜΕΣΟΣ,ΚΕΛΛΑΚΙ,34.8054737599042,33.15403349177006,3.6333,2017-10-28 12:30:00,,Γεωργικές δραστηριότητες
CY__ASOS,CY,,ΛΕΥΚΩΣΙΑ,ΑΛΕΥΓΑ ,35.14917817801524,32.599400502648066,0.0017,2017-10-30 11:55:00,,Φυσική (κεραυνός)
CY__ASOS,CY,,ΠΑΦΟΣ,ΙΝΕΙΑ ,34.96232264860882,32.342783779270206,20.0,2017-11-08 10:20:00,,Σκόπιμη
CY__ASOS,CY,,ΛΑΡΝΑΚΑ,ΟΔΟΥ ,34.908411442142786,33.173173889354715,0.05,2017-11-15 07:00:00,,Φυσική (κεραυνός)
CY__ASOS,CY,,ΛΕΥΚΩΣΙΑ,ΦΛΑΣΟΥ,35.06912604802693,32.884716038200075,0.2,2018-03-20 09:30:00,,Άγνωστη
CY__ASOS,CY,,ΠΑΦΟΣ,ΑΓΙΟΣ ΝΙΚΟΛΑΟΣ,34.86835346013805,32.77116478574483,0.31,2018-04-13 11:55:00,,Σκόπιμη
CY__ASOS,CY,,ΛΕΥΚΩΣΙΑ,ΚΑΠΕΔΕΣ ,34.967415860449535,33.24933202300533,0.1,2018-04-15 18:00:00,,Άγνωστη
CY__ASOS,CY,,ΑΜΜΟΧΩΣΤΟΣ,ΦΡΕΝΑΡΟΣ ,35.0322835833917,33.91525567672318,0.2,2018-04-16 14:05:00,,Άγνωστη
CY__ASOS,CY,,ΠΑΦΟΣ,ΙΝΕΙΑ ,34.942520873742936,32.36486533903992,0.483,2018-04-18 14:45:00,,Σκόπιμη
CY__ASOS,CY,,ΛΕΥΚΩΣΙΑ,ΜΑΘΙΑΤΗΣ ,34.97509013006505,33.34497344210034,0.3,2018-04-20 14:40:00,,Άγνωστη
CY__ASOS,CY,,ΛΕΥΚΩΣΙΑ,ΣΙΑ ,34.94479741878336,33.37052727306027,0.0261,2018-04-24 12:15:00,,Στρατιωτικές δραστηριότητες
CY__ASOS,CY,,ΛΑΡΝΑΚΑ,ΚΟΡΝΟΣ,34.92880755305122,33.38277316137863,0.0815,2018-04-25 11:10:00,,Στρατιωτικές δραστηριότητες
CY__ASOS,CY,,ΛΑΡΝΑΚΑ,ΛΑΡΝΑΚΑ ,34.90799885377072,33.61833987467406,0.15,2018-04-26 06:15:00,,Σκόπιμη
CY__ASOS,CY,,ΛΑΡΝΑΚΑ,ΠΑΝΩ ΛΕΥΚΑΡΑ,34.89723528037713,33.34424265440166,0.072,2018-04-26 09:15:00,,Στρατιωτικές δραστηριότητες
CY__ASOS,CY,,ΛΑΡΝΑΚΑ,ΠΑΝΩ ΛΕΥΚΑΡΑ,34.87583927794307,33.30256235533889,2.7,2018-05-01 14:20:00,,Κάψιμο σκυβάλων
CY__ASOS,CY,,ΛΕΥΚΩΣΙΑ,ΜΑΘΙΑΤΗΣ ,34.98016260237935,33.34649568505282,0.7,2018-05-02 02:45:00,,Άγνωστη
CY__ASOS,CY,,ΛΑΡΝΑΚΑ,ΑΓΙΑ ΑΝΝΑ ,34.932689408636364,33.50282105908922,6.223,2018-05-03 13:00:00,,Γεωργικές δραστηριότητες
CY__ASOS,CY,,ΛΕΜΕΣΟΣ,ΠΡΟΔΡΟΜΟΣ,34.945577139041056,32.85053454121506,0.0016,2018-05-13 16:20:00,,Φυσική (κεραυνός)
CY__ASOS,CY,,ΛΕΥΚΩΣΙΑ,ΑΓΛΑΝΤΖΙΑ,35.15711141269585,33.378744968387025,0.001,2018-05-13 11:53:00,,Σκόπιμη
CY__ASOS,CY,,ΛΕΥΚΩΣΙΑ,ΑΓΛΑΝΤΖΙΑ,35.14361533178758,33.403097138916266,0.0003,2018-05-13 13:04:00,,Σκόπιμη
CY__ASOS,CY,,ΛΕΥΚΩΣΙΑ,ΚΟΤΣΙΑΤΗΣ ,35.0089383514488,33.352327055365954,3.2,2018-05-16 16:40:00,,Άγνωστη
CY__ASOS,CY,,ΛΑΡΝΑΚΑ,ΚΛΑΥΔΙΑ ,34.8907499188938,33.53641526588605,2.4,2018-05-17 11:20:00,,Σκόπιμη
CY__ASOS,CY,,ΛΕΥΚΩΣΙΑ,ΑΓΙΟΣ ΕΠΙΦΑΝΙΟΣ ΟΡΕΙΝΗΣ,34.9999051831957,33.11883603516269,0.2,2018-05-18 14:00:00,,Δραστηριότητες σε κατοικίες
CY__ASOS,CY,,ΑΜΜΟΧΩΣΤΟΣ,ΑΓΙΑ ΝΑΠΑ ,34.98330915505318,34.03675938321545,3.3,2018-05-22 13:25:00,,Άγνωστη
CY__ASOS,CY,,ΛΕΥΚΩΣΙΑ,ΕΥΡΥΧΟΥ ,35.06014296993248,32.91534777713107,0.0001,2018-05-29 15:10:00,,Φυσική (κεραυνός)
CY__ASOS,CY,,ΛΕΥΚΩΣΙΑ,ΚΑΜΠΟΣ ,35.06215760653163,32.77638295904221,0.0005,2018-05-29 14:15:00,,Φυσική (κεραυνός)
CY__ASOS,CY,,ΠΑΦΟΣ,ΠΑΝΩ ΑΡΧΙΜΑΝΔΡΙΤΑ,34.734270870156735,32.65671852164898,0.2,2018-05-30 13:00:00,,Γεωργικές δραστηριότητες
CY__ASOS,CY,,ΠΑΦΟΣ,ΠΕΓΕΙΑ ,34.89527059685191,32.3986977047077,0.172,2018-05-31 18:05:00,,Σκόπιμη
CY__ASOS,CY,,ΠΑΦΟΣ,ΠΑΝΩ ΠΑΝΑΓΙΑ,34.980897915643176,32.64893252806653,0.001,2018-06-01 16:00:00,,Φυσική (κεραυνός)
CY__ASOS,CY,,ΛΑΡΝΑΚΑ,ΑΛΕΘΡΙΚΟ ,34.858944089932,33.51370552429975,0.5,2018-06-02 11:10:00,,Γεωργικές δραστηριότητες
CY__ASOS,CY,,ΛΕΥΚΩΣΙΑ,ΦΡΟΔΙΣΙΑ,35.05856219008984,32.68077600790471,0.9,2018-06-03 18:00:00,,Φυσική (κεραυνός)
CY__ASOS,CY,,ΛΕΥΚΩΣΙΑ,ΜΥΛΙΚΟΥΡΙ ,34.95386362100199,32.68510345628843,0.001,2018-06-04 07:10:00,,Φυσική (κεραυνός)
CY__ASOS,CY,,ΑΜΜΟΧΩΣΤΟΣ,ΣΩΤΗΡΑ ,35.008574072454095,33.94747500031484,0.04,2018-06-09 14:00:00,,Άγνωστη
CY__ASOS,CY,,ΠΑΦΟΣ,ΠΕΓΕΙΑ ,34.90329697358044,32.38803288837798,2.4,2018-06-09 12:30:00,,Σκόπιμη
CY__ASOS,CY,,ΛΕΜΕΣΟΣ,ΔΙΕΡΩΝΑ ,34.7937703980763,33.100765166078794,0.0077,2018-06-12 17:30:00,,Φυσική (κεραυνός)
CY__ASOS,CY,,ΠΑΦΟΣ,ΙΝΕΙΑ ,34.96772840757625,32.35538171230767,1.5699999999999998,2018-06-13 14:45:00,,Σκόπιμη
CY__ASOS,CY,,ΛΑΡΝΑΚΑ,ΟΡΜΙΔΕΙΑ ,34.977392028700315,33.802484481011554,0.07,2018-06-13 10:45:00,,Σκόπιμη
CY__ASOS,CY,,ΛΑΡΝΑΚΑ,ΠΑΝΩ ΛΕΥΚΑΡΑ,34.84536021257608,33.361833723273946,0.0131,2018-06-17 18:00:00,,Ράλλι
CY__ASOS,CY,,ΠΑΦΟΣ,ΑΜΑΡΓΕΤΗ ,34.79610560623762,32.59514722353399,2.37,2018-06-20 10:50:00,,Γεωργικές δραστηριότητες
CY__ASOS,CY,,ΛΕΥΚΩΣΙΑ,ΠΑΝΩ ΠΥΡΓΟΣ  ,35.13001841118825,32.671958040501984,31.0,2018-06-21 18:14:00,,Σκόπιμη
CY__ASOS,CY,,ΛΕΜΕΣΟΣ,ΛΕΜΕΣΟΣ ,34.7129133152682,32.99704049015264,0.14,2018-06-24 19:00:00,,Άγνωστη
CY__ASOS,CY,,ΑΜΜΟΧΩΣΤΟΣ,ΣΩΤΗΡΑ ,35.00395881743238,33.943816366536105,1.7,2018-06-29 21:22:00,,Άγνωστη
CY__ASOS,CY,,ΛΕΜΕΣΟΣ,ΠΑΝΩ ΠΟΛΕΜΙΔΙΑ ,34.70779929672991,32.98501772106498,30.0,2018-06-30 13:05:00,,Γεωργικές δραστηριότητες
CY__ASOS,CY,,ΛΑΡΝΑΚΑ,ΠΥΡΓΑ,34.93264299211077,33.44539007240288,0.29,2018-07-04 16:00:00,,Γεωργικές δραστηριότητες
CY__ASOS,CY,,ΛΕΥΚΩΣΙΑ,ΣΙΑ ,34.96851627744035,33.411603578498124,0.019,2018-07-04 16:25:00,,Ταξιδιώτες / Εκδρομείς
CY__ASOS,CY,,ΛΕΜΕΣΟΣ,ΑΨΙΟΥ ,34.794912051192426,33.00735689994704,7.6,2018-07-05 09:45:00,,Σκόπιμη
CY__ASOS,CY,,ΛΕΜΕΣΟΣ,ΒΙΚΛΑ ,34.827668740778165,33.19621047962243,1.1,2018-07-05 13:30:00,,Άλλη
CY__ASOS,CY,,ΛΕΥΚΩΣΙΑ,ΜΑΘΙΑΤΗΣ ,34.98188302418249,33.33430865481499,0.1,2018-07-06 00:20:00,,Άγνωστη
CY__ASOS,CY,,ΠΑΦΟΣ,ΙΝΕΙΑ ,34.95736767346233,32.343622891565325,20.0,2018-07-13 14:20:00,,Σκόπιμη
CY__ASOS,CY,,ΛΕΥΚΩΣΙΑ,ΠΕΔΟΥΛΑΣ ,34.965854731063054,32.828008871479774,0.01,2018-07-19 16:25:00,,Άγνωστη
CY__ASOS,CY,,ΛΑΡΝΑΚΑ,ΚΟΡΝΟΣ,34.89509367911503,33.39880386907034,0.0008,2018-07-19 19:40:00,,Ταξιδιώτες / Εκδρομείς
CY__ASOS,CY,,ΠΑΦΟΣ,ΙΝΕΙΑ ,34.96057575627152,32.31707962544084,0.008,2018-07-20 01:00:00,,Σκόπιμη
CY__ASOS,CY,,ΠΑΦΟΣ,ΠΕΓΕΙΑ ,34.929672156200574,32.32329212120785,0.003,2018-07-20 06:10:00,,Σκόπιμη
CY__ASOS,CY,,ΛΑΡΝΑΚΑ,ΚΟΡΝΟΣ,34.92501908516675,33.40536450338415,0.0038,2018-07-27 19:20:00,,Σκόπιμη
CY__ASOS,CY,,ΑΜΜΟΧΩΣΤΟΣ,ΑΓΙΑ ΝΑΠΑ ,34.97869961355476,34.027433135131155,0.01,2018-07-28 18:21:00,,Φυσική (κεραυνός)
CY__ASOS,CY,,ΛΕΥΚΩΣΙΑ,ΠΗΓΕΝΙΑ,35.16996404755437,32.66849228569004,19.1,2018-07-28 13:19:00,,Σκόπιμη
CY__ASOS,CY,,ΛΑΡΝΑΚΑ,ΠΥΡΓΑ,34.90750714597525,33.4107296780358,0.025,2018-08-02 14:00:00,,Ταξιδιώτες / Εκδρομείς
CY__ASOS,CY,,ΠΑΦΟΣ,ΠΟΛΙΣ ΧΡΥΣΟΧΟΥΣ ,35.04291179025638,32.422978156824,1.9,2018-08-05 00:35:00,,Σκόπιμη
CY__ASOS,CY,,ΛΕΜΕΣΟΣ,ΠΑΡΕΚΚΛΗΣΙΑ ,34.78418030159072,33.16294562528653,5.8,2018-08-06 13:30:00,,Σκόπιμη
CY__ASOS,CY,,ΛΕΥΚΩΣΙΑ,ΚΑΛΟΠΑΝΑΓΙΩΤΗΣ,34.98849562418416,32.82663571490642,0.21,2018-08-10 16:00:00,,Βραχυκύκλωμα καλωδίων
CY__ASOS,CY,,ΛΑΡΝΑΚΑ,ΚΑΛΟ ΧΩΡΙΟ ,34.91771009535343,33.48766577015588,25.82,2018-08-13 12:00:00,,Ταξιδιώτες / Εκδρομείς
CY__ASOS,CY,,ΛΕΥΚΩΣΙΑ,ΜΥΛΙΚΟΥΡΙ ,34.962728967232486,32.74736320270472,8.28,2018-08-15 13:12:00,,Δραστηριότητες σε κατοικίες
CY__ASOS,CY,,ΛΑΡΝΑΚΑ,ΜΟΣΦΙΛΩΤΗ ,34.94927741041272,33.43871178391805,0.22,2018-08-20 15:45:00,,Δραστηριότητες σε κατοικίες
CY__ASOS,CY,,ΛΕΥΚΩΣΙΑ,ΠΑΝΩ ΠΥΡΓΟΣ  ,35.14811820805491,32.68645384723911,16.6,2018-08-22 20:05:00,,Σκόπιμη
CY__ASOS,CY,,ΛΕΥΚΩΣΙΑ,ΛΥΘΡΟΔΟΝΤΑΣ,34.928019792723845,33.26980801365175,0.135,2018-08-24 13:03:00,,Άγνωστη
CY__ASOS,CY,,ΛΕΜΕΣΟΣ,ΜΟΝΑΓΡΟΥΛΛΙ ,34.761122054191965,33.21510962677028,4.8,2018-08-30 13:45:00,,Γεωργικές δραστηριότητες
CY__ASOS,CY,,ΛΕΜΕΣΟΣ,ΠΡΑΣΤΙΟ ΚΕΛΛΑΚΙΟΥ,34.795104016579856,33.11222302077715,0.006,2018-09-08 17:30:00,,Φυσική (κεραυνός)
CY__ASOS,CY,,ΠΑΦΟΣ,ΓΙΑΛΙΑ ,35.0829375728463,32.550437826678255,0.7259,2018-09-09 15:20:00,,Φυσική (κεραυνός)
CY__ASOS,CY,,ΛΕΥΚΩΣΙΑ,ΚΑΛΟΠΑΝΑΓΙΩΤΗΣ,35.03951652729779,32.82071711561403,0.009,2018-09-09 13:00:00,,Φυσική (κεραυνός)
CY__ASOS,CY,,ΛΕΥΚΩΣΙΑ,ΛΑΖΑΝΙΑΣ,34.96296368750154,33.20987411215662,0.0015,2018-09-09 13:50:00,,Φυσική (κεραυνός)
CY__ASOS,CY,,ΠΑΦΟΣ,ΠΕΓΕΙΑ ,34.8963339285573,32.37180977218369,8.4,2018-09-16 14:38:00,,Ταξιδιώτες / Εκδρομείς
CY__ASOS,CY,,ΛΕΥΚΩΣΙΑ,ΚΑΜΠΙΑ ,34.97673649642404,33.23753920654497,65.3,2018-09-20 09:50:00,,Σκόπιμη
CY__ASOS,CY,,ΠΑΦΟΣ,ΙΝΕΙΑ ,34.96043184559504,32.391792556953604,0.32,2018-09-24 16:20:00,,Σκόπιμη
CY__ASOS,CY,,ΠΑΦΟΣ,ΔΡΟΥΣΕΙΑ,34.973503333579345,32.38927489716058,0.48,2018-10-03 13:00:00,,Σκόπιμη
CY__ASOS,CY,,ΠΑΦΟΣ,ΠΑΝΩ ΠΑΝΑΓΙΑ,34.90045871947463,32.63553869886103,0.01,2018-10-06 10:50:00,,Γεωργικές δραστηριότητες
CY__ASOS,CY,,ΛΕΥΚΩΣΙΑ,ΚΑΛΟΠΑΝΑΓΙΩΤΗΣ,34.98674908333617,32.85645318935589,0.02,2018-10-09 16:30:00,,Φυσική (κεραυνός)
CY__ASOS,CY,,ΛΕΥΚΩΣΙΑ,ΛΑΓΟΥΔΕΡΑ ,34.965947071158446,33.024099172035825,0.006,2018-10-09 15:40:00,,Φυσική (κεραυνός)
CY__ASOS,CY,,ΛΕΜΕΣΟΣ,ΦΟΙΝΙ,34.90809950279603,32.79445808357217,0.01,2018-10-10 20:00:00,,Φυσική (κεραυνός)
CY__ASOS,CY,,ΛΕΥΚΩΣΙΑ,ΜΥΛΙΚΟΥΡΙ ,34.94132593792377,32.73672987452139,0.2,2018-10-13 10:15:00,,Φυσική (κεραυνός)
CY__ASOS,CY,,ΠΑΦΟΣ,ΔΡΟΥΣΕΙΑ,34.96995118015296,32.39481137028276,0.1,2018-10-17 16:20:00,,Σκόπιμη
CY__ASOS,CY,,ΠΑΦΟΣ,ΙΝΕΙΑ ,34.95568998962078,32.314162971450045,0.14,2018-10-19 00:03:00,,Σκόπιμη
CY__ASOS,CY,,ΠΑΦΟΣ,ΙΝΕΙΑ ,34.96716517089388,32.37880599005574,0.28,2018-10-23 17:50:00,,Σκόπιμη
CY__ASOS,CY,,ΠΑΦΟΣ,ΠΑΝΩ ΑΡΟΔΕΣ ,34.92019665684659,32.37759457382542,2.4,2018-10-25 16:25:00,,Σκόπιμη
CY__ASOS,CY,,ΠΑΦΟΣ,ΠΕΓΕΙΑ ,34.93187627233906,32.333785422953675,0.65,2018-11-03 12:10:00,,Σκόπιμη
CY__ASOS,CY,,ΠΑΦΟΣ,ΙΝΕΙΑ ,34.97427954588233,32.36308655651322,0.2,2018-11-04 13:00:00,,Σκόπιμη
CY__ASOS,CY,,ΠΑΦΟΣ,ΠΑΝΩ ΑΡΟΔΕΣ ,34.921791637701936,32.37387113469782,0.51,2018-11-04 15:00:00,,Σκόπιμη
CY__ASOS,CY,,ΠΑΦΟΣ,ΠΑΝΩ ΑΡΟΔΕΣ ,34.92577400358563,32.37497953791069,0.16,2018-11-04 16:00:00,,Σκόπιμη
CY__ASOS,CY,,ΠΑΦΟΣ,ΔΡΟΥΣΕΙΑ,34.99542128097417,32.3371170610151,0.0005,2018-11-04 09:00:00,,Σκόπιμη
CY__ASOS,CY,,ΛΕΜΕΣΟΣ,ΠΡΑΣΤΙΟ ΚΕΛΛΑΚΙΟΥ,34.79824820995172,33.14109851246844,0.9,2018-11-04 10:20:00,,Δραστηριότητες κυνηγών
CY__ASOS,CY,,ΠΑΦΟΣ,ΙΝΕΙΑ ,34.97461640817401,32.35855949749845,7.17,2018-11-07 12:05:00,,Σκόπιμη
CY__ASOS,CY,,ΠΑΦΟΣ,ΙΝΕΙΑ ,34.94328003014152,32.37213089825729,0.006,2018-11-07 14:20:00,,Σκόπιμη
CY__ASOS,CY,,ΠΑΦΟΣ,ΔΡΟΥΣΕΙΑ,34.97698089930477,32.3762449994572,0.07,2018-11-10 12:00:00,,Σκόπιμη
CY__ASOS,CY,,ΠΑΦΟΣ,ΙΝΕΙΑ ,34.95325377734366,32.38993989042214,0.22,2018-11-10 14:30:00,,Σκόπιμη
CY__ASOS,CY,,ΠΑΦΟΣ,ΙΝΕΙΑ ,34.955962704329195,32.33072099341562,10.0,2018-11-11 10:40:00,,Σκόπιμη
CY__ASOS,CY,,ΠΑΦΟΣ,ΚΑΤΩ ΑΡΟΔΕΣ ,34.941317856536784,32.38517715165936,0.069,2018-11-11 18:30:00,,Σκόπιμη
CY__ASOS,CY,,ΠΑΦΟΣ,ΔΡΟΥΣΕΙΑ,35.00978676106752,32.3113882525642,1.92,2018-11-11 20:45:00,,Σκόπιμη
CY__ASOS,CY,,ΠΑΦΟΣ,ΙΝΕΙΑ ,34.96497006848825,32.338786413742945,52.02,2018-11-14 08:45:00,,Σκόπιμη
CY__ASOS,CY,,ΠΑΦΟΣ,ΙΝΕΙΑ ,34.97581059670954,32.37312066941401,0.19,2018-11-14 16:50:00,,Σκόπιμη
CY__ASOS,CY,,ΠΑΦΟΣ,ΙΝΕΙΑ ,34.94530994717954,32.38823559260737,0.19,2018-11-14 16:15:00,,Σκόπιμη
CY__ASOS,CY,,ΠΑΦΟΣ,ΙΝΕΙΑ ,34.94849752449518,32.38912089947364,0.42,2018-11-14 19:00:00,,Σκόπιμη
CY__ASOS,CY,,ΠΑΦΟΣ,ΙΝΕΙΑ ,34.94178184337719,32.3563732800981,0.05,2018-11-14 20:00:00,,Σκόπιμη
CY__ASOS,CY,,ΠΑΦΟΣ,ΙΝΕΙΑ ,34.95589888637436,32.379854838973635,0.16,2018-11-14 18:20:00,,Σκόπιμη
CY__ASOS,CY,,ΠΑΦΟΣ,ΚΑΤΩ ΑΡΟΔΕΣ ,34.93772342099114,32.34948447876421,0.04,2018-11-14 22:30:00,,Σκόπιμη
CY__ASOS,CY,,ΠΑΦΟΣ,ΙΝΕΙΑ ,34.95210115542847,32.31576996147523,0.16,2018-11-28 05:45:00,,Σκόπιμη
CY__ASOS,CY,,ΠΑΦΟΣ,ΦΑΣΛΙ ,34.99408112242243,32.35959109416086,3.5,2018-11-28 16:00:00,,Σκόπιμη
CY__ASOS,CY,,ΛΕΜΕΣΟΣ,ΦΟΙΝΙ,34.91136724810786,32.845440579122446,0.0002,2019-05-16 12:54:00,,Άγνωστη
CY__ASOS,CY,,ΛΕΥΚΩΣΙΑ,ΣΙΑ ,34.94774042681797,33.372391345198295,0.029,2019-05-17 08:20:00,,Στρατιωτικές δραστηριότητες
CY__ASOS,CY,,ΛΕΜΕΣΟΣ,ΒΑΣΑ ΚΕΛΛΑΚΙΟΥ,34.778010754264564,33.21599500263387,0.106,2019-05-20 20:00:00,,Γεωργικές δραστηριότητες
CY__ASOS,CY,,ΛΕΥΚΩΣΙΑ,ΜΑΘΙΑΤΗΣ ,34.98020778269359,33.34646300737321,1.0,2019-05-24 02:25:00,,Άγνωστη
CY__ASOS,CY,,ΛΕΥΚΩΣΙΑ,ΚΑΜΠΙΑ ,35.001650384658014,33.268438540551955,0.6,2019-05-26 13:45:00,,Βραχυκύκλωμα καλωδίων
CY__ASOS,CY,,ΠΑΦΟΣ,ΔΡΟΥΣΕΙΑ,34.97081422149571,32.40339343591492,0.594,2019-05-28 12:23:00,,Γεωργικές δραστηριότητες
CY__ASOS,CY,,ΛΕΥΚΩΣΙΑ,ΣΙΑ ,34.950278820883895,33.37678362523007,0.144,2019-05-31 11:45:00,,Στρατιωτικές δραστηριότητες
CY__ASOS,CY,,ΛΕΜΕΣΟΣ,ΠΥΡΓΟΣ ,34.717814185142124,33.184799962069945,0.0457,2019-06-02 14:30:00,,Γεωργικές δραστηριότητες
CY__ASOS,CY,,ΛΕΥΚΩΣΙΑ,ΜΑΘΙΑΤΗΣ ,34.97816787877226,33.148209954931964,12.0,2019-06-06 15:29:00,,Άγνωστη
CY__ASOS,CY,,ΛΑΡΝΑΚΑ,ΜΟΣΦΙΛΩΤΗ ,34.947661978274304,33.444036619132966,0.459,2019-06-06 14:00:00,,Βραχυκύκλωμα καλωδίων
CY__ASOS,CY,,ΛΕΥΚΩΣΙΑ,ΛΥΘΡΟΔΟΝΤΑΣ,34.95170484049869,33.30928075239249,0.1,2019-06-10 17:27:00,,Σκόπιμη
CY__ASOS,CY,,ΛΕΜΕΣΟΣ,ΠΑΝΩ ΠΟΛΕΜΙΔΙΑ ,34.71795317050422,32.98313741547896,0.0786,2019-06-11 18:00:00,,Κάψιμο σκυβάλων
CY__ASOS,CY,,ΛΕΥΚΩΣΙΑ,ΚΑΠΕΔΕΣ ,34.97203033073826,33.27150784830217,0.0012,2019-06-12 14:25:00,,Φυσική (κεραυνός)
CY__ASOS,CY,,ΛΕΥΚΩΣΙΑ,ΑΓΛΑΝΤΖΙΑ,35.15658808282373,33.37885233866897,0.0025,2019-06-13 15:05:00,,Άγνωστη
CY__ASOS,CY,,ΛΕΜΕΣΟΣ,ΜΟΝΙΑΤΗΣ,34.90197436320235,32.91218291761971,0.001,2019-06-15 15:15:00,,Φυσική (κεραυνός)
CY__ASOS,CY,,ΠΑΦΟΣ,ΛΥΣΟΣ,35.04404961635219,32.57904896795338,0.022,2019-06-16 16:22:00,,Φυσική (κεραυνός)
CY__ASOS,CY,,ΠΑΦΟΣ,ΚΥΝΟΥΣΑ ,35.03001404818251,32.51725903255317,0.001,2019-06-16 15:15:00,,Φυσική (κεραυνός)
CY__ASOS,CY,,ΠΑΦΟΣ,ΑΣΠΡΟΓΙΑ ,34.92099250686662,32.60412540315781,0.1,2019-06-16 13:20:00,,Σκόπιμη
CY__ASOS,CY,,ΛΑΡΝΑΚΑ,ΚΟΦΙΝΟΥ ,34.84001662142503,33.41167382087,1.8514,2019-06-25 17:18:00,,Γεωργικές δραστηριότητες
CY__ASOS,CY,,ΛΕΥΚΩΣΙΑ,ΜΥΛΙΚΟΥΡΙ ,34.96799258622772,32.7175401222324,0.015,2019-07-07 15:45:00,,Φυσική (κεραυνός)
CY__ASOS,CY,,ΛΕΥΚΩΣΙΑ,ΛΥΘΡΟΔΟΝΤΑΣ,34.95212801578201,33.30953424416477,0.08,2019-07-08 16:35:00,,Σκόπιμη
CY__ASOS,CY,,ΛΕΜΕΣΟΣ,ΜΟΝΑΓΡΟΥΛΛΙ ,34.766450199232644,33.20545241560555,31.0,2019-07-12 17:15:00,,Δραστηριότητες σε κατοικίες
CY__ASOS,CY,,ΛΑΡΝΑΚΑ,ΜΟΣΦΙΛΩΤΗ ,34.968432185343,33.43065285528366,0.014,2019-07-17 20:00:00,,Σκόπιμη
CY__ASOS,CY,,ΠΑΦΟΣ,ΙΝΕΙΑ ,34.953374758139454,32.31455463294012,0.106,2019-07-17 23:35:00,,Σκόπιμη
CY__ASOS,CY,,ΠΑΦΟΣ,ΠΑΝΩ ΑΡΟΔΕΣ ,34.92770778902257,32.33497969707896,0.103,2019-07-18 00:40:00,,Σκόπιμη
CY__ASOS,CY,,ΠΑΦΟΣ,ΚΑΘΙΚΑΣ ,34.90965287000468,32.41710336522227,3.71,2019-07-20 18:30:00,,Σκόπιμη
CY__ASOS,CY,,ΛΕΥΚΩΣΙΑ,ΜΑΘΙΑΤΗΣ ,34.94626146041676,33.32867730448618,0.0154,2019-07-21 09:30:00,,Άγνωστη
CY__ASOS,CY,,ΛΕΜΕΣΟΣ,ΒΑΣΑ ΚΕΛΛΑΚΙΟΥ,34.79187418338996,33.2242185171555,2.66,2019-07-21 18:00:00,,Σκόπιμη
CY__ASOS,CY,,ΛΕΜΕΣΟΣ,ΠΥΡΓΟΣ ,34.72480801412004,33.17531317052772,17.7,2019-07-22 14:00:00,,Σκόπιμη
CY__ASOS,CY,,ΑΜΜΟΧΩΣΤΟΣ,ΑΓΙΑ ΝΑΠΑ ,34.99403998032384,33.959930368435714,0.8,2019-07-23 15:08:00,,Άγνωστη
CY__ASOS,CY,,ΠΑΦΟΣ,ΔΡΟΥΣΕΙΑ,34.98139027543506,32.3797503511568,4.495,2019-07-27 03:00:00,,Σκόπιμη
CY__ASOS,CY,,ΑΜΜΟΧΩΣΤΟΣ,ΠΑΡΑΛΙΜΝΙ ,34.99630245505016,34.045185259566075,12.9,2019-07-28 12:30:00,,Άγνωστη
CY__ASOS,CY,,ΠΑΦΟΣ,ΠΕΓΕΙΑ ,34.911043316371554,32.329980148664646,0.103,2019-08-07 14:40:00,,Άγνωστη
CY__ASOS,CY,,ΑΜΜΟΧΩΣΤΟΣ,ΑΓΙΑ ΝΑΠΑ ,34.99585707116356,34.03507675382328,1.2,2019-08-14 13:48:00,,Άγνωστη
CY__ASOS,CY,,ΠΑΦΟΣ,ΙΝΕΙΑ ,34.95569608107191,32.31046096494901,1.55,2019-08-18 14:15:00,,Σκόπιμη
CY__ASOS,CY,,ΠΑΦΟΣ,ΛΥΣΟΣ,35.00178283038863,32.57058615933827,0.002,2019-08-19 16:30:00,,Φυσική (κεραυνός)
CY__ASOS,CY,,ΛΕΜΕΣΟΣ,ΠΑΝΩ ΠΛΑΤΡΕΣ,34.881948114160046,32.873367498037155,0.0002,2019-08-28 14:58:00,,Φυσική (κεραυνός)
CY__ASOS,CY,,ΛΕΥΚΩΣΙΑ,ΚΟΚΚΙΝΟΤΡΙΜΙΘΙΑ ,35.15671984816095,33.162433324593465,1.0,2019-09-08 17:23:00,,Άγνωστη
CY__ASOS,CY,,ΛΕΥΚΩΣΙΑ,ΑΓΙΑ ΜΑΡΙΝΑ ΞΥΛΙΑΤΟΥ,34.99989813942923,33.05192227951442,0.0326,2019-09-08 18:00:00,,Φυσική (κεραυνός)
CY__ASOS,CY,,ΠΑΦΟΣ,ΔΡΟΥΣΕΙΑ,34.97023752265943,32.396178580472984,0.055,2019-09-11 14:00:00,,Σκόπιμη
CY__ASOS,CY,,ΛΕΥΚΩΣΙΑ,ΜΥΛΙΚΟΥΡΙ ,34.912834612819374,32.68186662523591,0.0001,2019-09-12 07:45:00,,Φυσική (κεραυνός)
CY__ASOS,CY,,ΠΑΦΟΣ,ΛΥΣΟΣ,35.00049876857848,32.59310197856012,0.184,2019-09-14 13:00:00,,Φυσική (κεραυνός)
CY__ASOS,CY,,ΛΕΥΚΩΣΙΑ,ΠΑΝΩ ΠΥΡΓΟΣ  ,35.14082739423157,32.677699816493565,0.025,2019-09-14 12:11:00,,Φυσική (κεραυνός)
CY__ASOS,CY,,ΠΑΦΟΣ,ΙΝΕΙΑ ,34.95758181277214,32.33987532467544,0.447,2019-09-14 11:20:00,,Σκόπιμη
CY__ASOS,CY,,ΛΕΜΕΣΟΣ,ΠΑΝΩ ΠΟΛΕΜΙΔΙΑ ,34.711984386404815,32.994496028466216,0.098,2019-09-15 12:20:00,,Άγνωστη
CY__ASOS,CY,,ΛΕΜΕΣΟΣ,ΤΡΙΜΗΚΛΗΝΗ ,34.87117631066541,32.9210674154304,0.001,2019-09-15 11:50:00,,Φυσική (κεραυνός)
CY__ASOS,CY,,ΠΑΦΟΣ,ΠΑΝΩ ΑΡΟΔΕΣ ,34.929932694724386,32.344498432995366,0.28,2019-09-16 09:30:00,,Σκόπιμη
CY__ASOS,CY,,ΠΑΦΟΣ,ΠΟΛΙΣ ΧΡΥΣΟΧΟΥΣ ,35.012468260425045,32.40957952449279,1.438,2019-09-26 14:35:00,,Σκόπιμη
CY__ASOS,CY,,ΠΑΦΟΣ,ΠΟΛΙΣ ΧΡΥΣΟΧΟΥΣ ,35.01957397206267,32.407752748971504,1.192,2019-09-29 12:30:00,,Σκόπιμη
CY__ASOS,CY,,ΠΑΦΟΣ,ΠΡΟΔΡΟΜΙ,35.0174418908134,32.40325226066903,0.884,2019-10-08 13:30:00,,Γεωργικές δραστηριότητες
CY__ASOS,CY,,ΛΕΥΚΩΣΙΑ,ΣΙΑ ,34.94468013387554,33.41251384307136,0.136,2019-10-08 13:30:00,,Γεωργικές δραστηριότητες
CY__ASOS,CY,,ΛΕΥΚΩΣΙΑ,ΣΙΑ ,34.94388636726316,33.37062173509244,0.149,2019-10-09 12:15:00,,Στρατιωτικές δραστηριότητες
CY__ASOS,CY,,ΠΑΦΟΣ,ΔΡΟΥΣΕΙΑ,34.98630111429663,32.35314344228911,3.81,2019-10-12 16:20:00,,Γεωργικές δραστηριότητες
CY__ASOS,CY,,ΛΕΜΕΣΟΣ,ΜΟΝΗ ,34.72065751629498,33.2002058806264,0.007,2019-10-12 12:15:00,,Ταξιδιώτες / Εκδρομείς
CY__ASOS,CY,,ΛΕΜΕΣΟΣ,ΠΑΡΕΚΚΛΗΣΙΑ ,34.75750444329385,33.15706934919919,0.0341,2019-10-14 21:30:00,,Σκόπιμη
CY__ASOS,CY,,ΠΑΦΟΣ,ΔΡΟΥΣΕΙΑ,34.97625464772185,32.394885511538504,0.674,2019-10-14 09:15:00,,Γεωργικές δραστηριότητες
CY__ASOS,CY,,ΛΕΥΚΩΣΙΑ,ΝΙΚΗΤΑΡΙ,35.04443826572971,32.95605373813593,1.25,2019-10-15 16:50:00,,Φυσική (κεραυνός)
CY__ASOS,CY,,ΠΑΦΟΣ,ΑΓΙΟΣ ΝΙΚΟΛΑΟΣ,34.903492377102204,32.73440975575389,0.001,2019-10-15 17:10:00,,Φυσική (κεραυνός)
CY__ASOS,CY,,ΛΕΜΕΣΟΣ,ΔΙΕΡΩΝΑ ,34.807176464581225,33.093609357081206,0.001,2019-10-15 13:30:00,,Φυσική (κεραυνός)
CY__ASOS,CY,,ΛΕΜΕΣΟΣ,ΠΡΑΣΤΙΟ ΚΕΛΛΑΚΙΟΥ,34.79981735744846,33.14862249543576,0.0002,2019-10-15 12:30:00,,Φυσική (κεραυνός)
CY__ASOS,CY,,ΠΑΦΟΣ,ΠΑΝΩ ΑΡΟΔΕΣ ,34.918941927163395,32.38263998745994,0.081,2019-10-15 17:30:00,,Σκόπιμη
CY__ASOS,CY,,ΛΑΡΝΑΚΑ,ΨΕΥΔΑΣ ,34.949098260892605,33.460318752071686,0.226,2019-10-16 15:00:00,,Βραχυκύκλωμα καλωδίων
CY__ASOS,CY,,ΠΑΦΟΣ,ΤΙΜΗ ,34.70961857989593,32.48999313481301,0.0347,2019-10-19 11:45:00,,Άγνωστη
CY__ASOS,CY,,ΛΕΜΕΣΟΣ,ΜΑΘΙΚΟΛΩΝΗ ,34.80173607666,33.07091848182731,0.04,2019-10-19 15:35:00,,Φυσική (κεραυνός)
CY__ASOS,CY,,ΠΑΦΟΣ,ΔΡΟΥΣΕΙΑ,34.97247084582891,32.39558158523672,0.45,2019-10-22 14:30:00,,Γεωργικές δραστηριότητες
CY__ASOS,CY,,ΛΕΥΚΩΣΙΑ,ΚΑΛΟΠΑΝΑΓΙΩΤΗΣ,35.050780292093215,32.84089089606831,0.0003,2019-10-23 17:30:00,,Φυσική (κεραυνός)
CY__ASOS,CY,,ΠΑΦΟΣ,ΛΥΣΟΣ,35.02591204740605,32.59113446488782,0.0097,2019-10-27 15:05:00,,Φυσική (κεραυνός)
CY__ASOS,CY,,ΠΑΦΟΣ,ΙΝΕΙΑ ,34.9508564416911,32.37248930763138,0.37,2019-10-28 12:20:00,,Γεωργικές δραστηριότητες
CY__ASOS,CY,,ΠΑΦΟΣ,ΔΡΟΥΣΕΙΑ,34.97406581477598,32.39536172233363,0.236,2019-10-29 15:35:00,,Σκόπιμη
CY__ASOS,CY,,ΠΑΦΟΣ,ΦΥΤΗ ,34.93448585393821,32.55798347644259,0.51,2019-10-29 13:20:00,,Γεωργικές δραστηριότητες
CY__ASOS,CY,,ΠΑΦΟΣ,ΔΡΟΥΣΕΙΑ,35.00646376978473,32.41537633848568,0.162,2019-10-30 13:45:00,,Γεωργικές δραστηριότητες
CY__ASOS,CY,,ΠΑΦΟΣ,ΙΝΕΙΑ ,34.954977429647656,32.34183479221457,2.31,2019-10-30 08:30:00,,Γεωργικές δραστηριότητες
CY__ASOS,CY,,ΠΑΦΟΣ,ΙΝΕΙΑ ,34.95817863753308,32.37601509947169,0.896,2019-11-03 15:00:00,,Σκόπιμη
CY__ASOS,CY,,ΠΑΦΟΣ,ΛΥΣΟΣ,35.00320584663455,32.53112626437573,0.051,2019-11-06 17:35:00,,Σκόπιμη
CY__ASOS,CY,,ΠΑΦΟΣ,ΙΝΕΙΑ ,34.97545480634102,32.36022910597818,0.53,2019-11-10 10:50:00,,Σκόπιμη
CY__ASOS,CY,,ΠΑΦΟΣ,ΦΑΣΛΙ ,34.990385953049184,32.35654090664035,1.97,2019-11-10 10:45:00,,Σκόπιμη
CY__ASOS,CY,,ΠΑΦΟΣ,ΔΡΟΥΣΕΙΑ,34.96925158517281,32.3973798447619,0.664,2019-11-13 12:00:00,,Σκόπιμη
CY__ASOS,CY,,ΠΑΦΟΣ,ΙΝΕΙΑ ,34.96254117474612,32.34651716691028,10.0,2019-11-13 07:30:00,,Σκόπιμη
CY__ASOS,CY,,ΠΑΦΟΣ,ΔΡΟΥΣΕΙΑ,34.99675142023166,32.33301899441678,110.0,2019-11-13 09:30:00,,Σκόπιμη
CY__ASOS,CY,,ΠΑΦΟΣ,ΚΡΙΤΟΥ ΤΕΡΑ ,34.96595863631196,32.41737304156205,0.41,2019-11-24 18:00:00,,Σκόπιμη
CY__ASOS,CY,,ΠΑΦΟΣ,ΠΟΜΟΣ,35.14626808967839,32.541581754425714,0.008,2019-11-26 21:30:00,,Φυσική (κεραυνός)
CY__ASOS,CY,,ΠΑΦΟΣ,ΛΥΣΟΣ,35.00150851640359,32.54001256108354,0.59,2020-03-31 19:20:00,,Άγνωστη
CY__ASOS,CY,,ΠΑΦΟΣ,ΑΓΙΟΣ ΙΩΑΝΝΗΣ,34.88063277819801,32.69230979927451,0.61,2020-04-17 19:00:00,,Σκόπιμη
CY__ASOS,CY,,ΛΕΥΚΩΣΙΑ,ΠΑΧΥΑΜΜΟΣ,35.168065323108806,32.57450157128998,0.0184,2020-04-18 18:05:00,,Άγνωστη
CY__ASOS,CY,,ΛΕΥΚΩΣΙΑ,ΦΡΟΔΙΣΙΑ,35.06488264698543,32.667108071713486,1.5,2020-04-26 15:35:00,,Φυσική (κεραυνός)
CY__ASOS,CY,,ΠΑΦΟΣ,ΙΝΕΙΑ ,34.95553612114838,32.36032916677228,0.03,2020-05-08 12:00:00,,Σκόπιμη
CY__ASOS,CY,,ΛΕΥΚΩΣΙΑ,ΑΛΑΜΠΡΑ ,34.967427854244185,33.38607467521693,0.5,2020-05-10 13:20:00,,Άγνωστη
CY__ASOS,CY,,ΠΑΦΟΣ,ΙΝΕΙΑ ,34.97178227274361,32.36663330566374,0.32,2020-05-10 18:00:00,,Σκόπιμη
CY__ASOS,CY,,ΠΑΦΟΣ,ΚΑΘΙΚΑΣ ,34.91137296942193,32.39997054921378,0.28,2020-05-14 10:20:00,,Σκόπιμη
CY__ASOS,CY,,ΛΕΥΚΩΣΙΑ,ΚΛΗΡΟΥ ,35.013895869242205,33.16826641375585,0.8,2020-05-14 17:18:00,,Σκόπιμη
CY__ASOS,CY,,ΛΕΜΕΣΟΣ,ΠΕΛΕΝΔΡΙ,34.92824942392205,32.93799493155217,0.038,2020-05-16 11:40:00,,Ταξιδιώτες / Εκδρομείς
CY__ASOS,CY,,ΑΜΜΟΧΩΣΤΟΣ,ΑΓΙΑ ΝΑΠΑ ,34.9979782357969,33.98718480041751,4.0,2020-05-17 13:50:00,,Άγνωστη
CY__ASOS,CY,,ΛΑΡΝΑΚΑ,ΚΟΡΝΟΣ,34.88782591884895,33.39869214475007,59.0,2020-05-17 11:00:00,,Ταξιδιώτες / Εκδρομείς
CY__ASOS,CY,,ΛΕΜΕΣΟΣ,ΑΣΓΑΤΑ,34.79680177091782,33.25433780374188,0.1288,2020-05-22 14:05:00,,Γεωργικές δραστηριότητες
CY__ASOS,CY,,ΛΑΡΝΑΚΑ,ΒΟΡΟΚΛΗΝΗ,34.98656290551092,33.65017848859155,0.3,2020-05-24 08:20:00,,Άγνωστη
CY__ASOS,CY,,ΛΕΜΕΣΟΣ,ΛΟΥΒΑΡΑΣ ,34.83493518811794,33.040466114707435,0.87,2020-05-24 11:30:00,,Βραχυκύκλωμα καλωδίων
CY__ASOS,CY,,ΛΕΜΕΣΟΣ,ΓΕΡΜΑΣΟΓΕΙΑ,34.73067691151394,33.08357214171435,6.1,2020-06-02 16:45:00,,Γεωργικές δραστηριότητες
CY__ASOS,CY,,ΛΕΥΚΩΣΙΑ,ΛΥΜΠΙΑ ,34.99796879213216,33.431870497589635,0.1,2020-06-07 12:35:00,,Ταξιδιώτες / Εκδρομείς
CY__ASOS,CY,,ΑΜΜΟΧΩΣΤΟΣ,ΣΩΤΗΡΑ ,34.978344703742614,33.90549643241511,0.3,2020-06-08 13:00:00,,Ταξιδιώτες / Εκδρομείς
CY__ASOS,CY,,ΑΜΜΟΧΩΣΤΟΣ,ΣΩΤΗΡΑ ,34.98073197447008,33.91899817264584,1.2,2020-06-10 12:25:00,,Άγνωστη
CY__ASOS,CY,,ΠΑΦΟΣ,ΑΣΠΡΟΓΙΑ ,34.91885139749238,32.6056793266983,1.08,2020-06-11 11:15:00,,Σκόπιμη
CY__ASOS,CY,,ΛΕΜΕΣΟΣ,ΑΚΡΟΥΝΤΑ ,34.78050365047966,33.07848544722651,42.89,2020-06-12 15:50:00,,Γεωργικές δραστηριότητες
CY__ASOS,CY,,ΠΑΦΟΣ,ΠΕΡΙΣΤΕΡΩΝΑ ,35.00001030892776,32.49650445202919,0.6777,2020-06-18 13:20:00,,Δραστηριότητες σε κατοικίες
CY__ASOS,CY,,ΛΕΥΚΩΣΙΑ,ΠΑΝΩ ΠΥΡΓΟΣ  ,35.168581423595306,32.68424496029845,1.4,2020-06-25 15:00:00,,Σκόπιμη
CY__ASOS,CY,,ΠΑΦΟΣ,ΙΝΕΙΑ ,34.94458363427951,32.37486968700357,0.06,2020-07-01 16:55:00,,Σκόπιμη
CY__ASOS,CY,,ΛΑΡΝΑΚΑ,ΚΑΛΑΒΑΣΟΣ ,34.790741371173645,33.27127303674275,2.1,2020-07-12 17:00:00,,Γεωργικές δραστηριότητες
CY__ASOS,CY,,ΛΕΥΚΩΣΙΑ,ΜΑΛΟΥΝΤΑ ,35.03967409622457,33.176366809384305,0.22,2020-07-14 18:00:00,,Σκόπιμη
CY__ASOS,CY,,ΠΑΦΟΣ,ΠΕΓΕΙΑ ,34.90200650666889,32.318374805046844,0.44,2020-07-14 09:45:00,,Σκόπιμη
CY__ASOS,CY,,ΛΕΥΚΩΣΙΑ,ΛΟΥΡΟΥΚΙΝΑ,35.00429722193568,33.51762620899509,10.0,2020-07-17 13:10:00,,Άγνωστη
CY__ASOS,CY,,ΛΕΥΚΩΣΙΑ,ΦΛΑΣΟΥ,35.05811691652289,32.88581719376928,0.14,2020-07-19 14:30:00,,Άγνωστη
CY__ASOS,CY,,ΛΕΥΚΩΣΙΑ,ΑΓΙΑ ΒΑΡΒΑΡΑ,34.98724345857573,33.35200398492251,3.5,2020-08-01 16:30:00,,Άγνωστη
CY__ASOS,CY,,ΠΑΦΟΣ,ΔΡΟΥΣΕΙΑ,34.96928308821371,32.40744671416623,5.31,2020-08-06 12:20:00,,Σκόπιμη
CY__ASOS,CY,,ΠΑΦΟΣ,ΔΡΟΥΣΕΙΑ,34.96845107338812,32.408800084279875,1.3,2020-08-07 15:45:00,,Σκόπιμη
CY__ASOS,CY,,ΠΑΦΟΣ,ΠΑΝΩ ΑΡΧΙΜΑΝΔΡΙΤΑ,34.75342118465172,32.682031239611305,40.0,2020-08-08 02:39:00,,Σκόπιμη
CY__ASOS,CY,,ΠΑΦΟΣ,ΣΟΥΣΚΙΟΥ ,34.72723250543927,32.62170822001743,300.0,2020-08-08 02:39:00,,Σκόπιμη
CY__ASOS,CY,,ΛΕΜΕΣΟΣ,ΚΕΛΛΑΚΙ,34.806682091283854,33.16103288542539,0.2993,2020-08-15 00:30:00,,Βραχυκύκλωμα καλωδίων
CY__ASOS,CY,,ΛΕΜΕΣΟΣ,ΚΥΠΕΡΟΥΝΤΑ ,34.94985623818751,32.96183218198434,3.17,2020-08-17 16:50:00,,Άγνωστη
CY__ASOS,CY,,ΛΕΜΕΣΟΣ,ΒΑΣΑ ΚΕΛΛΑΚΙΟΥ,34.80217067131499,33.21003423356818,1.1426,2020-08-17 15:25:00,,Σκόπιμη
CY__ASOS,CY,,ΛΕΥΚΩΣΙΑ,ΛΥΘΡΟΔΟΝΤΑΣ,34.948686272113704,33.30838231840994,0.018,2020-08-22 10:00:00,,Βραχυκύκλωμα καλωδίων
CY__ASOS,CY,,ΛΕΜΕΣΟΣ,ΠΑΝΩ ΠΟΛΕΜΙΔΙΑ ,34.70871007639409,33.015189925960065,0.04,2020-08-23 19:00:00,,Σκόπιμη
CY__ASOS,CY,,ΛΑΡΝΑΚΑ,ΜΟΣΦΙΛΩΤΗ ,34.96835963909797,33.42047585125668,1.2,2020-08-24 15:08:00,,Άγνωστη
CY__ASOS,CY,,ΛΕΜΕΣΟΣ,ΚΑΤΩ ΠΛΑΤΡΕΣ,34.8896123252733,32.84901624614208,2.8,2020-08-25 12:10:00,,Σκόπιμη
CY__ASOS,CY,,ΛΕΥΚΩΣΙΑ,ΛΥΘΡΟΔΟΝΤΑΣ,34.965318270497654,33.27686413870463,1.3,2020-08-27 15:45:00,,Σκόπιμη
CY__ASOS,CY,,ΠΑΦΟΣ,ΔΡΟΥΣΕΙΑ,34.99560676575872,32.40789259422675,1.4,2020-09-03 21:15:00,,Σκόπιμη
CY__ASOS,CY,,ΠΑΦΟΣ,ΦΑΣΛΙ ,34.99112710172511,32.37412155781785,0.76,2020-09-07 13:00:00,,Σκόπιμη
CY__ASOS,CY,,ΠΑΦΟΣ,ΑΓΙΟΣ ΝΙΚΟΛΑΟΣ,34.89097049323927,32.74878692050757,0.0001,2020-09-14 10:12:00,,Ταξιδιώτες / Εκδρομείς
CY__ASOS,CY,,ΠΑΦΟΣ,ΠΟΛΙΣ ΧΡΥΣΟΧΟΥΣ ,35.02094249319052,32.39998228395814,1.0,2020-09-15 14:00:00,,Γεωργικές δραστηριότητες
CY__ASOS,CY,,ΛΕΥΚΩΣΙΑ,ΣΙΑ ,34.9608408429402,33.37594473829947,0.1357,2020-09-20 13:00:00,,Κάψιμο σκυβάλων
CY__ASOS,CY,,ΛΕΜΕΣΟΣ,ΠΥΡΓΟΣ ,34.722741596246,33.17623717625955,4.0233,2020-09-22 15:35:00,,Σκόπιμη
CY__ASOS,CY,,ΛΑΡΝΑΚΑ,ΠΥΡΓΑ,34.907584035570096,33.452555889172416,0.0786,2020-09-22 14:00:00,,Στρατιωτικές δραστηριότητες
CY__ASOS,CY,,ΠΑΦΟΣ,ΚΑΤΩ ΑΡΟΔΕΣ ,34.93990139149276,32.394002867310974,9.15,2020-09-29 23:00:00,,Σκόπιμη
CY__ASOS,CY,,ΛΕΥΚΩΣΙΑ,ΑΓΛΑΝΤΖΙΑ,35.162229007005294,33.38293023915506,0.003,2020-09-30 13:15:00,,Άγνωστη
CY__ASOS,CY,,ΛΕΥΚΩΣΙΑ,ΑΓΛΑΝΤΖΙΑ,35.161761371850695,33.3825327574808,0.0003,2020-10-08 12:20:00,,Άγνωστη
CY__ASOS,CY,,ΠΑΦΟΣ,ΔΡΟΥΣΕΙΑ,34.97193900758584,32.39561835635588,0.6,2020-10-21 14:25:00,,Σκόπιμη
CY__ASOS,CY,,ΛΕΥΚΩΣΙΑ,ΑΓΛΑΝΤΖΙΑ,35.147267290302864,33.403093189563094,0.001,2020-10-22 14:50:00,,Άγνωστη
CY__ASOS,CY,,ΛΑΡΝΑΚΑ,ΚΟΡΝΟΣ,34.87743802882621,33.38743704068454,0.5,2020-10-24 10:10:00,,Άγνωστη
CY__ASOS,CY,,ΠΑΦΟΣ,ΔΡΟΥΣΕΙΑ,34.974338740014936,32.39766028255053,9.85,2020-10-27 07:50:00,,Σκόπιμη
CY__ASOS,CY,,ΠΑΦΟΣ,ΔΡΟΥΣΕΙΑ,34.9707760632886,32.401137063798224,0.38,2020-10-28 15:50:00,,Σκόπιμη
CY__ASOS,CY,,ΠΑΦΟΣ,ΠΟΛΙΣ ΧΡΥΣΟΧΟΥΣ ,35.03148067303634,32.3957504124792,0.26,2020-11-07 13:00:00,,Σκόπιμη
CY__ASOS,CY,,ΠΑΦΟΣ,ΔΡΟΥΣΕΙΑ,34.96508868330732,32.40717020692666,2.5,2020-11-07 14:45:00,,Γεωργικές δραστηριότητες
CY__ASOS,CY,,ΛΑΡΝΑΚΑ,ΒΑΒΑΤΣΙΝΙΑ ,34.887593057489326,33.22613072033669,0.002,2020-11-09 08:00:00,,Φυσική (κεραυνός)
CY__ASOS,CY,,ΛΑΡΝΑΚΑ,ΒΑΒΑΤΣΙΝΙΑ ,34.89889906008195,33.22722339018356,0.14,2020-11-10 12:50:00,,Φυσική (κεραυνός)
CY__ASOS,CY,,ΠΑΦΟΣ,ΓΙΑΛΙΑ ,35.08715402717412,32.4989095046767,0.0025,2020-11-10 14:15:00,,Φυσική (κεραυνός)
CY__ASOS,CY,,ΛΕΥΚΩΣΙΑ,ΚΑΜΠΟΣ ,35.03037674792289,32.65539736802012,0.004,2020-11-10 14:15:00,,Φυσική (κεραυνός)
CY__ASOS,CY,,ΠΑΦΟΣ,ΙΝΕΙΑ ,34.94899208252882,32.38884343839191,1.0,2020-11-14 13:30:00,,Γεωργικές δραστηριότητες
CY__ASOS,CY,,ΠΑΦΟΣ,ΔΡΟΥΣΕΙΑ,34.98781397172084,32.32949765714066,0.0005,2020-11-15 06:00:00,,Φυσική (κεραυνός)
CY__ASOS,CY,,ΠΑΦΟΣ,ΚΑΤΩ ΑΡΟΔΕΣ ,34.94007256000014,32.390366037578524,2.5,2020-11-15 14:30:00,,Σκόπιμη
CY__ASOS,CY,,ΠΑΦΟΣ,ΠΕΓΕΙΑ ,34.91223119371707,32.326281436536014,0.53,2020-11-17 07:45:00,,Σκόπιμη
CY__ASOS,CY,,ΠΑΦΟΣ,ΔΡΟΥΣΕΙΑ,34.982256615439,32.40327757940727,3.5,2020-11-19 09:00:00,,Σκόπιμη
CY__ASOS,CY,,ΠΑΦΟΣ,ΔΡΟΥΣΕΙΑ,35.00297572317877,32.417592933078474,0.5,2020-11-19 12:00:00,,Σκόπιμη
CY__ASOS,CY,,ΠΑΦΟΣ,ΙΝΕΙΑ ,34.97458701930023,32.35471449335946,20.0,2020-11-26 14:30:00,,Σκόπιμη
CY__ASOS,CY,,ΠΑΦΟΣ,ΙΝΕΙΑ ,34.96622833540423,32.36504391015324,0.3,2021-04-18 11:30:00,,Σκόπιμη
CY__ASOS,CY,,ΠΑΦΟΣ,ΔΡΟΥΣΕΙΑ,34.988983978491994,32.40705276792306,0.12,2021-04-18 16:30:00,,Σκόπιμη
CY__ASOS,CY,,ΛΕΥΚΩΣΙΑ,ΜΑΘΙΑΤΗΣ ,34.98015367885874,33.34646277948914,24.3,2021-04-30 22:20:00,,Σκόπιμη
CY__ASOS,CY,,ΛΕΥΚΩΣΙΑ,ΑΛΑΜΠΡΑ ,34.979622756513386,33.41512120724991,2.1174,2021-05-01 17:00:00,,Άγνωστη
CY__ASOS,CY,,ΛΕΥΚΩΣΙΑ,ΛΥΘΡΟΔΟΝΤΑΣ,34.956416628343206,33.28907949194933,0.055,2021-05-02 18:40:00,,Δραστηριότητες σε κατοικίες
CY__ASOS,CY,,ΛΕΥΚΩΣΙΑ,ΑΝΑΛΙΟΝΤΑΣ,35.00966064228277,33.27523795725667,12.6,2021-05-04 12:50:00,,Άγνωστη
CY__ASOS,CY,,ΛΕΥΚΩΣΙΑ,ΤΣΕΡΙ ,35.08959901689253,33.34892165975759,3.0,2021-05-04 17:00:00,,Άγνωστη
CY__ASOS,CY,,ΛΕΥΚΩΣΙΑ,ΠΟΛΙΤΙΚΟ,34.99001059140193,33.21301117993476,0.01,2021-05-09 17:43:00,,Δραστηριότητες σε κατοικίες
CY__ASOS,CY,,ΛΕΥΚΩΣΙΑ,ΑΓΛΑΝΤΖΙΑ ,35.156845931322,33.380017373378394,0.2,2021-05-18 19:37:00,,Άγνωστη
CY__ASOS,CY,,ΛΕΥΚΩΣΙΑ,ΑΓΛΑΝΤΖΙΑ,35.12577058636792,33.38071808081237,0.36,2021-05-21 20:05:00,,Άγνωστη
CY__ASOS,CY,,ΛΕΥΚΩΣΙΑ,ΓΕΡΙ ,35.115827450946,33.41554751605012,0.6,2021-05-21 15:25:00,,Σκόπιμη
CY__ASOS,CY,,ΠΑΦΟΣ,ΛΥΣΟΣ,34.999370616826866,32.509855798341206,0.547,2021-05-22 12:40:00,,Σκόπιμη
CY__ASOS,CY,,ΠΑΦΟΣ,ΑΚΟΥΡΣΟΣ ,34.89202563863652,32.42315962887191,0.36,2021-05-23 10:40:00,,Σκόπιμη
CY__ASOS,CY,,ΠΑΦΟΣ,ΑΣΠΡΟΓΙΑ ,34.92599743533228,32.585269495400425,0.07,2021-05-23 07:20:00,,Σκόπιμη
CY__ASOS,CY,,ΑΜΜΟΧΩΣΤΟΣ,ΠΑΡΑΛΙΜΝΙ ,35.00732104630569,33.972513171138026,4.6,2021-05-25 18:00:00,,Δραστηριότητες σε κατοικίες
CY__ASOS,CY,,ΠΑΦΟΣ,ΑΚΟΥΡΣΟΣ ,34.887388019609524,32.42260109018745,6.65,2021-05-26 11:40:00,,Σκόπιμη
CY__ASOS,CY,,ΛΕΥΚΩΣΙΑ,ΑΛΑΜΠΡΑ ,34.99871649874304,33.41659837365318,0.0465,2021-05-27 14:45:00,,Ταξιδιώτες / Εκδρομείς
CY__ASOS,CY,,ΛΕΥΚΩΣΙΑ,ΑΝΑΛΙΟΝΤΑΣ,35.00890171915542,33.27588204617905,0.4,2021-05-30 15:55:00,,Άγνωστη
CY__ASOS,CY,,ΛΑΡΝΑΚΑ,ΚΟΧΗ ,34.986026375431834,33.51803710169363,0.14,2021-06-03 18:08:00,,Σκόπιμη
CY__ASOS,CY,,ΛΕΥΚΩΣΙΑ,ΠΕΡΑ ΧΩΡΙΟ ,35.00816131516347,33.399417607435026,0.64,2021-06-10 16:15:00,,Άγνωστη
CY__ASOS,CY,,ΠΑΦΟΣ,ΙΝΕΙΑ ,34.95672714617335,32.38313441631924,0.05,2021-06-10 15:50:00,,Σκόπιμη
CY__ASOS,CY,,ΛΕΥΚΩΣΙΑ,ΑΓΙΑ ΜΑΡΙΝΑ ΞΥΛΙΑΤΟΥ,35.0363358994959,33.05555232601698,286.0,2021-06-16 14:55:00,,Γεωργικές δραστηριότητες
CY__ASOS,CY,,ΛΕΜΕΣΟΣ,ΒΑΣΑ ΚΕΛΛΑΚΙΟΥ,34.792317078029804,33.228515649349426,3.43,2021-06-19 17:39:00,,Σκόπιμη
CY__ASOS,CY,,ΠΑΦΟΣ,ΔΡΟΥΣΕΙΑ,35.00424601140441,32.41735379024251,0.82,2021-06-24 16:10:00,,Σκόπιμη
CY__ASOS,CY,,ΛΕΥΚΩΣΙΑ,ΤΣΕΡΙ ,35.09203174258072,33.35270602275219,1.5,2021-06-25 11:15:00,,Άγνωστη
CY__ASOS,CY,,ΛΕΜΕΣΟΣ,ΠΥΡΓΟΣ ,34.73422156746994,33.188113523300544,0.047,2021-07-02 06:38:00,,Δραστηριότητες σε κατοικίες
CY__ASOS,CY,,ΛΕΜΕΣΟΣ,ΜΟΝΗ ,34.71856990330485,33.18597023571624,12.6,2021-07-03 12:25:00,,Σκόπιμη
CY__ASOS,CY,,ΛΕΜΕΣΟΣ,ΑΡΑΚΑΠΑΣ ,34.8453388009532,33.10531262413878,0.7,2021-07-03 13:46:00,,Γεωργικές δραστηριότητες
CY__ASOS,CY,,ΛΕΜΕΣΟΣ,ΠΕΡΑ ΠΕΔΙ,34.86076890760265,32.87647416193333,5.0688,2021-07-09 10:15:00,,Δραστηριότητες σε κατοικίες
CY__ASOS,CY,,ΠΑΦΟΣ,ΚΑΘΙΚΑΣ ,34.9032146566061,32.42281870253872,0.23,2021-07-11 16:45:00,,Σκόπιμη
CY__ASOS,CY,,ΛΕΥΚΩΣΙΑ,ΑΓΛΑΝΤΖΙΑ ,35.13979229857875,33.386414721745616,0.0346,2021-07-15 14:21:00,,Άγνωστη
CY__ASOS,CY,,ΠΑΦΟΣ,ΔΡΟΥΣΕΙΑ,34.99180224402568,32.40990328557223,1.1,2021-07-17 22:20:00,,Σκόπιμη
CY__ASOS,CY,,ΛΕΥΚΩΣΙΑ,ΜΑΘΙΑΤΗΣ ,34.95727905192113,33.33263148844965,4.0,2021-07-28 11:25:00,,Δραστηριότητες σε κατοικίες
CY__ASOS,CY,,ΛΕΥΚΩΣΙΑ,ΣΙΑ ,34.94836884977383,33.37330318206652,0.1,2021-08-04 10:45:00,,Στρατιωτικές δραστηριότητες
CY__ASOS,CY,,ΠΑΦΟΣ,ΠΕΓΕΙΑ,34.891619600996606,32.36348439626761,0.001,2021-08-06 16:50:00,,Σκόπιμη
CY__ASOS,CY,,ΠΑΦΟΣ,ΝΕΟ ΧΩΡΙΟ,35.06514633902026,32.3056265216353,0.0005,2021-08-08 12:00:00,,Ταξιδιώτες / Εκδρομείς
CY__ASOS,CY,,ΠΑΦΟΣ,ΔΡΟΥΣΕΙΑ,34.99920339622592,32.41320342717871,6.3,2021-08-12 09:32:00,,Σκόπιμη
CY__ASOS,CY,,ΛΕΜΕΣΟΣ,ΜΟΝΑΓΡΟΥΛΛΙ ,34.76479231666362,33.20462874502188,10.0,2021-08-17 14:30:00,,Γεωργικές δραστηριότητες
CY__ASOS,CY,,ΛΕΜΕΣΟΣ,ΜΟΝΑΓΡΟΥΛΛΙ ,34.76413066359531,33.20661590205003,0.1101,2021-08-19 20:00:00,,Γεωργικές δραστηριότητες
CY__ASOS,CY,,ΠΑΦΟΣ,ΔΡΟΥΣΕΙΑ,34.982412045134176,32.40739596700498,0.35,2021-08-20 13:30:00,,Σκόπιμη
CY__ASOS,CY,,ΠΑΦΟΣ,ΠΡΟΔΡΟΜΙ,35.01759450647277,32.39945869916489,3.51,2021-08-23 13:30:00,,Σκόπιμη
CY__ASOS,CY,,ΛΕΥΚΩΣΙΑ,ΦΛΑΣΟΥ,35.06051394597874,32.90488508538147,0.0173,2021-09-05 19:45:00,,Άγνωστη
CY__ASOS,CY,,ΠΑΦΟΣ,ΠΕΓΕΙΑ,34.885064158262,32.346529242360496,1.03,2021-09-06 11:00:00,,Σκόπιμη
CY__ASOS,CY,,ΠΑΦΟΣ,ΠΕΓΕΙΑ,34.90315937856866,32.400227321042955,0.1,2021-09-08 18:10:00,,Σκόπιμη
CY__ASOS,CY,,ΛΕΥΚΩΣΙΑ,ΑΓΛΑΝΤΖΙΑ ,35.15737831658568,33.377011414728784,0.01,2021-09-10 10:30:00,,Άγνωστη
CY__ASOS,CY,,ΛΕΜΕΣΟΣ,ΑΡΜΕΝΟΧΩΡΙ ,34.75762547489878,33.12231215071777,76.87,2021-09-10 16:05:00,,Σκόπιμη
CY__ASOS,CY,,ΠΑΦΟΣ,ΠΡΟΔΡΟΜΙ,35.016960934988795,32.41000758609819,0.15,2021-09-12 15:00:00,,Σκόπιμη
CY__ASOS,CY,,ΛΕΥΚΩΣΙΑ,ΑΓΛΑΝΤΖΙΑ ,35.15788231215504,33.377321173215606,0.01,2021-09-13 08:30:00,,Άγνωστη
CY__ASOS,CY,,ΠΑΦΟΣ,ΠΟΛΙΣ ΧΡΥΣΟΧΟΥΣ,35.02590592427814,32.42883079415206,4.9154,2021-09-23 15:23:00,,Γεωργικές δραστηριότητες
CY__ASOS,CY,,ΛΕΥΚΩΣΙΑ,ΝΙΚΗΤΑΡΙ,35.03552393412001,32.96845816718191,0.01,2021-09-25 16:10:00,,Ράλλι
CY__ASOS,CY,,ΠΑΦΟΣ,ΔΡΟΥΣΕΙΑ,34.995836433015214,32.41809279320556,0.28,2021-09-27 13:30:00,,Σκόπιμη
CY__ASOS,CY,,ΑΜΜΟΧΩΣΤΟΣ,ΑΓΙΑ ΝΑΠΑ ,34.990863127967046,34.04856751583307,0.4,2021-10-05 12:05:00,,Άγνωστη
CY__ASOS,CY,,ΛΑΡΝΑΚΑ,ΤΟΧΝΗ ,34.778749752894,33.338864373015504,8.433,2021-10-09 11:30:00,,Σκόπιμη
CY__ASOS,CY,,ΑΜΜΟΧΩΣΤΟΣ,ΛΙΟΠΕΤΡΙ ,34.9970749166738,33.88322815449979,0.05,2021-10-10 13:20:00,,Άλλη
CY__ASOS,CY,,ΛΑΡΝΑΚΑ,ΠΑΝΩ ΛΕΥΚΑΡΑ,34.902288082891054,33.33016574869059,0.0111,2021-10-13 17:00:00,,Στρατιωτικές δραστηριότητες
CY__ASOS,CY,,ΛΑΡΝΑΚΑ,ΧΟΙΡΟΚOΙΤΙΑ ,34.78757410772616,33.34350218688847,0.0951,2021-10-15 11:10:00,,Σκόπιμη
CY__ASOS,CY,,ΠΑΦΟΣ,ΙΝΕΙΑ ,34.94924939551675,32.38622406509547,0.13,2021-10-28 14:20:00,,Σκόπιμη
CY__ASOS,CY,,ΠΑΦΟΣ,ΠΕΓΕΙΑ,34.895895772382815,32.390243880147075,0.08,2021-10-30 06:00:00,,Σκόπιμη
CY__ASOS,CY,,ΠΑΦΟΣ,ΙΝΕΙΑ ,34.94729131963515,32.39858096949526,0.4,2021-10-31 14:30:00,,Γεωργικές δραστηριότητες
CY__ASOS,CY,,ΠΑΦΟΣ,ΔΡΟΥΣΕΙΑ,34.985721956243985,32.35615009592679,100.0,2021-11-01 11:00:00,,Γεωργικές δραστηριότητες
CY__ASOS,CY,,ΛΑΡΝΑΚΑ,ΧΟΙΡΟΚOΙΤΙΑ ,34.79465050869908,33.34118128087229,0.1532,2021-11-06 14:00:00,,Σκόπιμη
CY__ASOS,CY,,ΠΑΦΟΣ,ΙΝΕΙΑ ,34.94977168821593,32.37197188797212,0.001,2021-11-07 11:15:00,,Σκόπιμη
CY__ASOS,CY,,ΠΑΦΟΣ,ΑΝΔΡΟΛΙΚΟΥ ,34.99178946632835,32.3837371029837,1.11,2021-11-08 14:40:00,,Γεωργικές δραστηριότητες
CY__ASOS,CY,,ΛΕΥΚΩΣΙΑ,ΓΕΡΙ ,35.12649457607882,33.41296756612393,0.01,2021-11-10 13:15:00,,Άγνωστη
CY__ASOS,CY,,ΠΑΦΟΣ,ΔΡΟΥΣΕΙΑ,34.970359399899195,32.39530132245378,0.11,2021-11-10 21:30:00,,Σκόπιμη
CY__ASOS,CY,,ΠΑΦΟΣ,ΑΝΔΡΟΛΙΚΟΥ ,34.992850004279326,32.38482490701011,8.66,2021-11-10 14:20:00,,Γεωργικές δραστηριότητες
CY__ASOS,CY,,ΛΕΜΕΣΟΣ,ΠΥΡΓΟΣ ,34.72281482659083,33.175483714750456,3.3,2021-11-13 22:05:00,,Σκόπιμη
CY__ASOS,CY,,ΑΜΜΟΧΩΣΤΟΣ,ΑΓΙΑ ΝΑΠΑ,34.96769263415108,34.07094644075887,0.2,2021-11-13 12:55:00,,Ταξιδιώτες / Εκδρομείς
CY__ASOS,CY,,ΠΑΦΟΣ,ΚΑΘΙΚΑΣ ,34.89784563973991,32.40707368718904,0.11,2021-11-18 12:00:00,,Σκόπιμη
CY__ASOS,CY,,ΠΑΦΟΣ,ΠΕΓΕΙΑ,34.85205698623401,32.39830124804545,3.14,2021-11-19 10:15:00,,Γεωργικές δραστηριότητες
CY__ASOS,CY,,ΠΑΦΟΣ,ΝΕΟ ΧΩΡΙΟ,35.05536249041307,32.34280677642568,0.1,2021-11-20 11:00:00,,Φυσική (κεραυνός)
CY__ASOS,CY,,ΛΕΥΚΩΣΙΑ,ΜΥΛΙΚΟΥΡΙ ,34.95710077836362,32.746745203567336,0.1,2021-11-24 13:15:00,,Φυσική (κεραυνός)
CY__ASOS,CY,,ΠΑΦΟΣ,ΙΝΕΙΑ ,34.96800687200268,32.37064969847102,2.87,2021-11-30 14:00:00,,Σκόπιμη
CY__ASOS,CY,,ΠΑΦΟΣ,ΚΑΘΙΚΑΣ ,34.92049291786416,32.413589079268064,20.0,2021-12-04 13:00:00,,Γεωργικές δραστηριότητες
